{"type":"FeatureCollection","features":[{"type":"Feature","properties":{"nombre":"77 St","lineas":"R","borough":"Brooklyn","linea":"4th Av","ada":"0"},"geometry":{"type":"Point","coordinates":[-74.02551,40.62974]}},{"type":"Feature","properties":{"nombre":"Middle Village-Metropolitan Av","lineas":"M","borough":"Queens","linea":"Myrtle Av","ada":"1"},"geometry":{"type":"Point","coordinates":[-73.8896,40.7114]}},{"type":"Feature","properties":{"nombre":"Times Sq-42 St","lineas":"1 2 3","borough":"Manhattan","linea":"Broadway - 7Av","ada":"1"},"geometry":{"type":"Point","coordinates":[-73.98749,40.75529]}},{"type":"Feature","properties":{"nombre":"Annadale","lineas":"SIR","borough":"Staten Island","linea":"Staten Island","ada":"0"},"geometry":{"type":"Point","coordinates":[-74.17822,40.54046]}},{"type":"Feature","properties":{"nombre":"Franklin Av","lineas":"S","borough":"Brooklyn","linea":"Franklin Shuttle","ada":"1"},"geometry":{"type":"Point","coordinates":[-73.95583,40.6806]}},{"type":"Feature","properties":{"nombre":"Junius St","lineas":"3","borough":"Brooklyn","linea":"Eastern Pky","ada":"0"},"geometry":{"type":"Point","coordinates":[-73.90245,40.66351]}},{"type":"Feature","properties":{"nombre":"34 St-Hudson Yards","lineas":"7","borough":"Manhattan","linea":"Flushing","ada":"1"},"geometry":{"type":"Point","coordinates":[-74.00191,40.75588]}},{"type":"Feature","properties":{"nombre":"52 St","lineas":"7","borough":"Queens","linea":"Flushing","ada":"0"},"geometry":{"type":"Point","coordinates":[-73.91255,40.74415]}},{"type":"Feature","properties":{"nombre":"E 149 St","lineas":"6","borough":"Bronx","linea":"Pelham","ada":"1"},"geometry":{"type":"Point","coordinates":[-73.9041,40.81212]}},{"type":"Feature","properties":{"nombre":"Myrtle Av","lineas":"M J Z","borough":"Brooklyn","linea":"Jamaica","ada":"0"},"geometry":{"type":"Point","coordinates":[-73.93566,40.69721]}},{"type":"Feature","properties":{"nombre":"East Broadway","lineas":"F","borough":"Manhattan","linea":"6th Av - Culver","ada":"0"},"geometry":{"type":"Point","coordinates":[-73.99017,40.71372]}},{"type":"Feature","properties":{"nombre":"Avenue N","lineas":"F","borough":"Brooklyn","linea":"6th Av - Culver","ada":"0"},"geometry":{"type":"Point","coordinates":[-73.9742,40.61514]}},{"type":"Feature","properties":{"nombre":"Hoyt St","lineas":"2 3","borough":"Brooklyn","linea":"Eastern Pky","ada":"2"},"geometry":{"type":"Point","coordinates":[-73.98507,40.69055]}},{"type":"Feature","properties":{"nombre":"Forest Av","lineas":"M","borough":"Queens","linea":"Myrtle Av","ada":"0"},"geometry":{"type":"Point","coordinates":[-73.90308,40.70442]}},{"type":"Feature","properties":{"nombre":"Tompkinsville","lineas":"SIR","borough":"Staten Island","linea":"Staten Island","ada":"0"},"geometry":{"type":"Point","coordinates":[-74.07483,40.63695]}},{"type":"Feature","properties":{"nombre":"Chambers St","lineas":"A C","borough":"Manhattan","linea":"8th Av - Fulton St","ada":"0"},"geometry":{"type":"Point","coordinates":[-74.00858,40.71411]}},{"type":"Feature","properties":{"nombre":"Westchester Sq-E Tremont Av","lineas":"6","borough":"Bronx","linea":"Pelham","ada":"1"},"geometry":{"type":"Point","coordinates":[-73.84295,40.83989]}},{"type":"Feature","properties":{"nombre":"170 St","lineas":"B D","borough":"Bronx","linea":"Concourse","ada":"0"},"geometry":{"type":"Point","coordinates":[-73.9134,40.83931]}},{"type":"Feature","properties":{"nombre":"59 St","lineas":"4 5 6","borough":"Manhattan","linea":"Lexington Av","ada":"0"},"geometry":{"type":"Point","coordinates":[-73.96797,40.76253]}},{"type":"Feature","properties":{"nombre":"Prospect Av","lineas":"2 5","borough":"Bronx","linea":"Lenox - White Plains Rd","ada":"0"},"geometry":{"type":"Point","coordinates":[-73.90177,40.81958]}},{"type":"Feature","properties":{"nombre":"Neptune Av","lineas":"F","borough":"Brooklyn","linea":"6th Av - Culver","ada":"0"},"geometry":{"type":"Point","coordinates":[-73.97457,40.58101]}},{"type":"Feature","properties":{"nombre":"Avenue U","lineas":"N","borough":"Brooklyn","linea":"Sea Beach","ada":"0"},"geometry":{"type":"Point","coordinates":[-73.97914,40.59747]}},{"type":"Feature","properties":{"nombre":"Morrison Av-Soundview","lineas":"6","borough":"Bronx","linea":"Pelham","ada":"0"},"geometry":{"type":"Point","coordinates":[-73.87452,40.82952]}},{"type":"Feature","properties":{"nombre":"Bay Pkwy","lineas":"F","borough":"Brooklyn","linea":"6th Av - Culver","ada":"0"},"geometry":{"type":"Point","coordinates":[-73.97526,40.62077]}},{"type":"Feature","properties":{"nombre":"5 Av/59 St","lineas":"N R W","borough":"Manhattan","linea":"Astoria","ada":"0"},"geometry":{"type":"Point","coordinates":[-73.97335,40.76481]}},{"type":"Feature","properties":{"nombre":"25 Av","lineas":"D","borough":"Brooklyn","linea":"West End","ada":"0"},"geometry":{"type":"Point","coordinates":[-73.98683,40.5977]}},{"type":"Feature","properties":{"nombre":"116 St","lineas":"6","borough":"Manhattan","linea":"Lexington Av","ada":"0"},"geometry":{"type":"Point","coordinates":[-73.94162,40.79863]}},{"type":"Feature","properties":{"nombre":"Beach 105 St","lineas":"A S","borough":"Queens","linea":"Rockaway","ada":"0"},"geometry":{"type":"Point","coordinates":[-73.82756,40.58321]}},{"type":"Feature","properties":{"nombre":"Briarwood","lineas":"E F","borough":"Queens","linea":"Queens Blvd","ada":"0"},"geometry":{"type":"Point","coordinates":[-73.82057,40.70918]}},{"type":"Feature","properties":{"nombre":"23 St","lineas":"R W","borough":"Manhattan","linea":"Broadway - Brighton","ada":"0"},"geometry":{"type":"Point","coordinates":[-73.98934,40.7413]}},{"type":"Feature","properties":{"nombre":"28 St","lineas":"R W","borough":"Manhattan","linea":"Broadway - Brighton","ada":"0"},"geometry":{"type":"Point","coordinates":[-73.98869,40.74549]}},{"type":"Feature","properties":{"nombre":"145 St","lineas":"1","borough":"Manhattan","linea":"Broadway - 7Av","ada":"0"},"geometry":{"type":"Point","coordinates":[-73.95036,40.82655]}},{"type":"Feature","properties":{"nombre":"Dyckman St","lineas":"A","borough":"Manhattan","linea":"8th Av - Fulton St","ada":"0"},"geometry":{"type":"Point","coordinates":[-73.92727,40.86549]}},{"type":"Feature","properties":{"nombre":"Marcy Av","lineas":"M J Z","borough":"Brooklyn","linea":"Jamaica","ada":"1"},"geometry":{"type":"Point","coordinates":[-73.95776,40.70836]}},{"type":"Feature","properties":{"nombre":"Hunters Point Av","lineas":"7","borough":"Queens","linea":"Flushing","ada":"0"},"geometry":{"type":"Point","coordinates":[-73.94892,40.74222]}},{"type":"Feature","properties":{"nombre":"116 St","lineas":"C B","borough":"Manhattan","linea":"8th Av - Fulton St","ada":"0"},"geometry":{"type":"Point","coordinates":[-73.95488,40.80508]}},{"type":"Feature","properties":{"nombre":"Jay St-MetroTech","lineas":"A C F","borough":"Brooklyn","linea":"8th Av - Fulton St","ada":"1"},"geometry":{"type":"Point","coordinates":[-73.98734,40.69234]}},{"type":"Feature","properties":{"nombre":"45 St","lineas":"R","borough":"Brooklyn","linea":"4th Av","ada":"0"},"geometry":{"type":"Point","coordinates":[-74.01001,40.64894]}},{"type":"Feature","properties":{"nombre":"Liberty Av","lineas":"C","borough":"Brooklyn","linea":"8th Av - Fulton St","ada":"0"},"geometry":{"type":"Point","coordinates":[-73.89655,40.67454]}},{"type":"Feature","properties":{"nombre":"Classon Av","lineas":"G","borough":"Brooklyn","linea":"Crosstown","ada":"0"},"geometry":{"type":"Point","coordinates":[-73.96007,40.68887]}},{"type":"Feature","properties":{"nombre":"Cortelyou Rd","lineas":"Q","borough":"Brooklyn","linea":"Broadway - Brighton","ada":"0"},"geometry":{"type":"Point","coordinates":[-73.96389,40.64093]}},{"type":"Feature","properties":{"nombre":"36 St","lineas":"M R","borough":"Queens","linea":"Queens Blvd","ada":"0"},"geometry":{"type":"Point","coordinates":[-73.92878,40.75204]}},{"type":"Feature","properties":{"nombre":"Fulton St","lineas":"4 5","borough":"Manhattan","linea":"Lexington Av","ada":"1"},"geometry":{"type":"Point","coordinates":[-74.00951,40.71037]}},{"type":"Feature","properties":{"nombre":"Bronx Park East","lineas":"2 5","borough":"Bronx","linea":"Lenox - White Plains Rd","ada":"0"},"geometry":{"type":"Point","coordinates":[-73.86846,40.84883]}},{"type":"Feature","properties":{"nombre":"Gun Hill Rd","lineas":"5","borough":"Bronx","linea":"Dyre Av","ada":"1"},"geometry":{"type":"Point","coordinates":[-73.84638,40.86953]}},{"type":"Feature","properties":{"nombre":"79 St","lineas":"D","borough":"Brooklyn","linea":"West End","ada":"0"},"geometry":{"type":"Point","coordinates":[-74.00061,40.6135]}},{"type":"Feature","properties":{"nombre":"Metropolitan Av","lineas":"G","borough":"Brooklyn","linea":"Crosstown","ada":"1"},"geometry":{"type":"Point","coordinates":[-73.95142,40.71279]}},{"type":"Feature","properties":{"nombre":"Queens Plaza","lineas":"E F R","borough":"Queens","linea":"Queens Blvd","ada":"1"},"geometry":{"type":"Point","coordinates":[-73.93724,40.74897]}},{"type":"Feature","properties":{"nombre":"Kingsbridge Rd","lineas":"4","borough":"Bronx","linea":"Jerome Av","ada":"0"},"geometry":{"type":"Point","coordinates":[-73.89717,40.86776]}},{"type":"Feature","properties":{"nombre":"Canal St","lineas":"R W","borough":"Manhattan","linea":"Broadway","ada":"0"},"geometry":{"type":"Point","coordinates":[-74.00177,40.71953]}},{"type":"Feature","properties":{"nombre":"191 St","lineas":"1","borough":"Manhattan","linea":"Broadway - 7Av","ada":"0"},"geometry":{"type":"Point","coordinates":[-73.92941,40.85522]}},{"type":"Feature","properties":{"nombre":"67 Av","lineas":"M R","borough":"Queens","linea":"Queens Blvd","ada":"0"},"geometry":{"type":"Point","coordinates":[-73.85272,40.72652]}},{"type":"Feature","properties":{"nombre":"Broadway Junction","lineas":"A C","borough":"Brooklyn","linea":"8th Av - Fulton St","ada":"0"},"geometry":{"type":"Point","coordinates":[-73.90532,40.67833]}},{"type":"Feature","properties":{"nombre":"Astoria-Ditmars Blvd","lineas":"N W","borough":"Queens","linea":"Astoria","ada":"0"},"geometry":{"type":"Point","coordinates":[-73.91203,40.77504]}},{"type":"Feature","properties":{"nombre":"Newkirk Av-Little Haiti","lineas":"2 5","borough":"Brooklyn","linea":"Nostrand","ada":"0"},"geometry":{"type":"Point","coordinates":[-73.94841,40.63997]}},{"type":"Feature","properties":{"nombre":"Jefferson St","lineas":"L","borough":"Brooklyn","linea":"Canarsie","ada":"0"},"geometry":{"type":"Point","coordinates":[-73.92291,40.70661]}},{"type":"Feature","properties":{"nombre":"Times Sq-42 St","lineas":"7","borough":"Manhattan","linea":"Flushing","ada":"1"},"geometry":{"type":"Point","coordinates":[-73.98769,40.75548]}},{"type":"Feature","properties":{"nombre":"Dongan Hills","lineas":"SIR","borough":"Staten Island","linea":"Staten Island","ada":"1"},"geometry":{"type":"Point","coordinates":[-74.09609,40.58885]}},{"type":"Feature","properties":{"nombre":"Aqueduct Racetrack","lineas":"A","borough":"Queens","linea":"Rockaway","ada":"1"},"geometry":{"type":"Point","coordinates":[-73.83592,40.6721]}},{"type":"Feature","properties":{"nombre":"Cleveland St","lineas":"J","borough":"Brooklyn","linea":"Jamaica","ada":"0"},"geometry":{"type":"Point","coordinates":[-73.88464,40.67995]}},{"type":"Feature","properties":{"nombre":"86 St","lineas":"C B","borough":"Manhattan","linea":"8th Av - Fulton St","ada":"0"},"geometry":{"type":"Point","coordinates":[-73.96892,40.78587]}},{"type":"Feature","properties":{"nombre":"Grant Av","lineas":"A","borough":"Brooklyn","linea":"Liberty Av","ada":"0"},"geometry":{"type":"Point","coordinates":[-73.86505,40.67704]}},{"type":"Feature","properties":{"nombre":"65 St","lineas":"M R","borough":"Queens","linea":"Queens Blvd","ada":"0"},"geometry":{"type":"Point","coordinates":[-73.89845,40.74967]}},{"type":"Feature","properties":{"nombre":"Avenue M","lineas":"Q","borough":"Brooklyn","linea":"Broadway - Brighton","ada":"0"},"geometry":{"type":"Point","coordinates":[-73.9594,40.61762]}},{"type":"Feature","properties":{"nombre":"238 St","lineas":"1","borough":"Bronx","linea":"Broadway - 7Av","ada":"0"},"geometry":{"type":"Point","coordinates":[-73.90087,40.88467]}},{"type":"Feature","properties":{"nombre":"Eastern Pkwy-Brooklyn Museum","lineas":"2 3","borough":"Brooklyn","linea":"Eastern Pky","ada":"1"},"geometry":{"type":"Point","coordinates":[-73.96438,40.67199]}},{"type":"Feature","properties":{"nombre":"Bleecker St","lineas":"6","borough":"Manhattan","linea":"Lexington Av","ada":"1"},"geometry":{"type":"Point","coordinates":[-73.99466,40.72592]}},{"type":"Feature","properties":{"nombre":"Beverley Rd","lineas":"Q","borough":"Brooklyn","linea":"Broadway - Brighton","ada":"0"},"geometry":{"type":"Point","coordinates":[-73.96449,40.64403]}},{"type":"Feature","properties":{"nombre":"111 St","lineas":"7","borough":"Queens","linea":"Flushing","ada":"0"},"geometry":{"type":"Point","coordinates":[-73.85533,40.75173]}},{"type":"Feature","properties":{"nombre":"125 St","lineas":"A C B D","borough":"Manhattan","linea":"8th Av - Fulton St","ada":"1"},"geometry":{"type":"Point","coordinates":[-73.95234,40.81111]}},{"type":"Feature","properties":{"nombre":"23 St","lineas":"F M","borough":"Manhattan","linea":"6th Av - Culver","ada":"0"},"geometry":{"type":"Point","coordinates":[-73.99282,40.74288]}},{"type":"Feature","properties":{"nombre":"Wall St","lineas":"4 5","borough":"Manhattan","linea":"Lexington Av","ada":"0"},"geometry":{"type":"Point","coordinates":[-74.01186,40.70756]}},{"type":"Feature","properties":{"nombre":"Kings Hwy","lineas":"N","borough":"Brooklyn","linea":"Sea Beach","ada":"0"},"geometry":{"type":"Point","coordinates":[-73.98035,40.60392]}},{"type":"Feature","properties":{"nombre":"137 St-City College","lineas":"1","borough":"Manhattan","linea":"Broadway - 7Av","ada":"2"},"geometry":{"type":"Point","coordinates":[-73.95368,40.82201]}},{"type":"Feature","properties":{"nombre":"116 St","lineas":"2 3","borough":"Manhattan","linea":"Lenox - White Plains Rd","ada":"0"},"geometry":{"type":"Point","coordinates":[-73.94962,40.8021]}},{"type":"Feature","properties":{"nombre":"Franklin St","lineas":"1","borough":"Manhattan","linea":"Broadway - 7Av","ada":"0"},"geometry":{"type":"Point","coordinates":[-74.00689,40.71932]}},{"type":"Feature","properties":{"nombre":"176 St","lineas":"4","borough":"Bronx","linea":"Jerome Av","ada":"0"},"geometry":{"type":"Point","coordinates":[-73.91179,40.84848]}},{"type":"Feature","properties":{"nombre":"7 Av","lineas":"E B D","borough":"Manhattan","linea":"Queens Blvd","ada":"0"},"geometry":{"type":"Point","coordinates":[-73.98164,40.76286]}},{"type":"Feature","properties":{"nombre":"174-175 Sts","lineas":"B D","borough":"Bronx","linea":"Concourse","ada":"0"},"geometry":{"type":"Point","coordinates":[-73.91014,40.8459]}},{"type":"Feature","properties":{"nombre":"Canal St","lineas":"J Z","borough":"Manhattan","linea":"Jamaica","ada":"0"},"geometry":{"type":"Point","coordinates":[-73.99989,40.71809]}},{"type":"Feature","properties":{"nombre":"Lorimer St","lineas":"L","borough":"Brooklyn","linea":"Canarsie","ada":"1"},"geometry":{"type":"Point","coordinates":[-73.95028,40.71406]}},{"type":"Feature","properties":{"nombre":"23 St","lineas":"C E","borough":"Manhattan","linea":"8th Av - Fulton St","ada":"0"},"geometry":{"type":"Point","coordinates":[-73.99804,40.74591]}},{"type":"Feature","properties":{"nombre":"Nostrand Av","lineas":"A C","borough":"Brooklyn","linea":"8th Av - Fulton St","ada":"0"},"geometry":{"type":"Point","coordinates":[-73.95043,40.68044]}},{"type":"Feature","properties":{"nombre":"Fort Hamilton Pkwy","lineas":"N","borough":"Brooklyn","linea":"Sea Beach","ada":"0"},"geometry":{"type":"Point","coordinates":[-74.00535,40.63139]}},{"type":"Feature","properties":{"nombre":"Pelham Pkwy","lineas":"5","borough":"Bronx","linea":"Dyre Av","ada":"0"},"geometry":{"type":"Point","coordinates":[-73.85536,40.85898]}},{"type":"Feature","properties":{"nombre":"36 Av","lineas":"N W","borough":"Queens","linea":"Astoria","ada":"0"},"geometry":{"type":"Point","coordinates":[-73.92957,40.7568]}},{"type":"Feature","properties":{"nombre":"Bedford Park Blvd","lineas":"B D","borough":"Bronx","linea":"Concourse","ada":"1"},"geometry":{"type":"Point","coordinates":[-73.88714,40.87324]}},{"type":"Feature","properties":{"nombre":"3 Av-138 St","lineas":"6","borough":"Bronx","linea":"Pelham","ada":"0"},"geometry":{"type":"Point","coordinates":[-73.92614,40.81048]}},{"type":"Feature","properties":{"nombre":"Central Av","lineas":"M","borough":"Brooklyn","linea":"Myrtle Av","ada":"0"},"geometry":{"type":"Point","coordinates":[-73.9274,40.69786]}},{"type":"Feature","properties":{"nombre":"Sterling St","lineas":"2 5","borough":"Brooklyn","linea":"Nostrand","ada":"0"},"geometry":{"type":"Point","coordinates":[-73.95085,40.66274]}},{"type":"Feature","properties":{"nombre":"Smith-9 Sts","lineas":"F G","borough":"Brooklyn","linea":"6th Av - Culver","ada":"0"},"geometry":{"type":"Point","coordinates":[-73.99596,40.67358]}},{"type":"Feature","properties":{"nombre":"Elder Av","lineas":"6","borough":"Bronx","linea":"Pelham","ada":"0"},"geometry":{"type":"Point","coordinates":[-73.87916,40.82858]}},{"type":"Feature","properties":{"nombre":"96 St","lineas":"Q","borough":"Manhattan","linea":"Second Av","ada":"1"},"geometry":{"type":"Point","coordinates":[-73.94715,40.78432]}},{"type":"Feature","properties":{"nombre":"Fulton St","lineas":"2 3","borough":"Manhattan","linea":"Clark St","ada":"1"},"geometry":{"type":"Point","coordinates":[-74.00657,40.70942]}},{"type":"Feature","properties":{"nombre":"Stapleton","lineas":"SIR","borough":"Staten Island","linea":"Staten Island","ada":"0"},"geometry":{"type":"Point","coordinates":[-74.07516,40.62792]}},{"type":"Feature","properties":{"nombre":"Fresh Pond Rd","lineas":"M","borough":"Queens","linea":"Myrtle Av","ada":"0"},"geometry":{"type":"Point","coordinates":[-73.89588,40.70619]}},{"type":"Feature","properties":{"nombre":"163 St-Amsterdam Av","lineas":"C","borough":"Manhattan","linea":"8th Av - Fulton St","ada":"0"},"geometry":{"type":"Point","coordinates":[-73.93989,40.83601]}},{"type":"Feature","properties":{"nombre":"DeKalb Av","lineas":"B Q R","borough":"Brooklyn","linea":"Broadway - Brighton","ada":"1"},"geometry":{"type":"Point","coordinates":[-73.98182,40.69064]}},{"type":"Feature","properties":{"nombre":"28 St","lineas":"6","borough":"Manhattan","linea":"Lexington Av","ada":"2"},"geometry":{"type":"Point","coordinates":[-73.98426,40.74307]}},{"type":"Feature","properties":{"nombre":"103 St","lineas":"1","borough":"Manhattan","linea":"Broadway - 7Av","ada":"0"},"geometry":{"type":"Point","coordinates":[-73.96838,40.79945]}},{"type":"Feature","properties":{"nombre":"21 St-Queensbridge","lineas":"M","borough":"Queens","linea":"63rd St","ada":"1"},"geometry":{"type":"Point","coordinates":[-73.94284,40.7542]}},{"type":"Feature","properties":{"nombre":"Nereid Av","lineas":"2 5","borough":"Bronx","linea":"Lenox - White Plains Rd","ada":"0"},"geometry":{"type":"Point","coordinates":[-73.85438,40.89838]}},{"type":"Feature","properties":{"nombre":"104 St","lineas":"J Z","borough":"Queens","linea":"Jamaica","ada":"0"},"geometry":{"type":"Point","coordinates":[-73.84433,40.69518]}},{"type":"Feature","properties":{"nombre":"Atlantic Av","lineas":"L","borough":"Brooklyn","linea":"Canarsie","ada":"0"},"geometry":{"type":"Point","coordinates":[-73.9031,40.67535]}},{"type":"Feature","properties":{"nombre":"Jay St-MetroTech","lineas":"R","borough":"Brooklyn","linea":"Broadway","ada":"1"},"geometry":{"type":"Point","coordinates":[-73.98594,40.69218]}},{"type":"Feature","properties":{"nombre":"Nevins St","lineas":"2 3 4 5","borough":"Brooklyn","linea":"Eastern Pky","ada":"0"},"geometry":{"type":"Point","coordinates":[-73.98049,40.68825]}},{"type":"Feature","properties":{"nombre":"Sutter Av","lineas":"L","borough":"Brooklyn","linea":"Canarsie","ada":"0"},"geometry":{"type":"Point","coordinates":[-73.90197,40.66937]}},{"type":"Feature","properties":{"nombre":"Atlantic Av-Barclays Ctr","lineas":"B Q","borough":"Brooklyn","linea":"Broadway - Brighton","ada":"1"},"geometry":{"type":"Point","coordinates":[-73.97689,40.68446]}},{"type":"Feature","properties":{"nombre":"Zerega Av","lineas":"6","borough":"Bronx","linea":"Pelham","ada":"0"},"geometry":{"type":"Point","coordinates":[-73.84704,40.83649]}},{"type":"Feature","properties":{"nombre":"Church Av","lineas":"F G","borough":"Brooklyn","linea":"6th Av - Culver","ada":"1"},"geometry":{"type":"Point","coordinates":[-73.97968,40.64404]}},{"type":"Feature","properties":{"nombre":"W 8 St-NY Aquarium","lineas":"F Q","borough":"Brooklyn","linea":"Broadway - Brighton","ada":"0"},"geometry":{"type":"Point","coordinates":[-73.97594,40.57613]}},{"type":"Feature","properties":{"nombre":"Avenue P","lineas":"F","borough":"Brooklyn","linea":"6th Av - Culver","ada":"0"},"geometry":{"type":"Point","coordinates":[-73.97302,40.60894]}},{"type":"Feature","properties":{"nombre":"161 St-Yankee Stadium","lineas":"4","borough":"Bronx","linea":"Jerome Av","ada":"1"},"geometry":{"type":"Point","coordinates":[-73.92583,40.82799]}},{"type":"Feature","properties":{"nombre":"Harlem-148 St","lineas":"3","borough":"Manhattan","linea":"Lenox - White Plains Rd","ada":"1"},"geometry":{"type":"Point","coordinates":[-73.93647,40.82388]}},{"type":"Feature","properties":{"nombre":"14 St","lineas":"1 2 3","borough":"Manhattan","linea":"Broadway - 7Av","ada":"1"},"geometry":{"type":"Point","coordinates":[-74.0002,40.73783]}},{"type":"Feature","properties":{"nombre":"Beach 44 St","lineas":"A","borough":"Queens","linea":"Rockaway","ada":"0"},"geometry":{"type":"Point","coordinates":[-73.77601,40.59294]}},{"type":"Feature","properties":{"nombre":"Intervale Av","lineas":"2 5","borough":"Bronx","linea":"Lenox - White Plains Rd","ada":"0"},"geometry":{"type":"Point","coordinates":[-73.89674,40.82218]}},{"type":"Feature","properties":{"nombre":"Wakefield-241 St","lineas":"2","borough":"Bronx","linea":"Lenox - White Plains Rd","ada":"0"},"geometry":{"type":"Point","coordinates":[-73.85062,40.90313]}},{"type":"Feature","properties":{"nombre":"Delancey St-Essex St","lineas":"F","borough":"Manhattan","linea":"6th Av - Culver","ada":"0"},"geometry":{"type":"Point","coordinates":[-73.98811,40.71861]}},{"type":"Feature","properties":{"nombre":"111 St","lineas":"J","borough":"Queens","linea":"Jamaica","ada":"0"},"geometry":{"type":"Point","coordinates":[-73.83634,40.69742]}},{"type":"Feature","properties":{"nombre":"Jamaica-179 St","lineas":"F","borough":"Queens","linea":"Queens Blvd","ada":"1"},"geometry":{"type":"Point","coordinates":[-73.78382,40.71265]}},{"type":"Feature","properties":{"nombre":"Longwood Av","lineas":"6","borough":"Bronx","linea":"Pelham","ada":"0"},"geometry":{"type":"Point","coordinates":[-73.89643,40.8161]}},{"type":"Feature","properties":{"nombre":"Cathedral Pkwy (110 St)","lineas":"1","borough":"Manhattan","linea":"Broadway - 7Av","ada":"0"},"geometry":{"type":"Point","coordinates":[-73.96685,40.80397]}},{"type":"Feature","properties":{"nombre":"57 St-7 Av","lineas":"N Q R W","borough":"Manhattan","linea":"Broadway - Brighton","ada":"1"},"geometry":{"type":"Point","coordinates":[-73.98066,40.76466]}},{"type":"Feature","properties":{"nombre":"Castle Hill Av","lineas":"6","borough":"Bronx","linea":"Pelham","ada":"0"},"geometry":{"type":"Point","coordinates":[-73.85122,40.83425]}},{"type":"Feature","properties":{"nombre":"Bay Pkwy","lineas":"D","borough":"Brooklyn","linea":"West End","ada":"1"},"geometry":{"type":"Point","coordinates":[-73.99373,40.60187]}},{"type":"Feature","properties":{"nombre":"110 St","lineas":"6","borough":"Manhattan","linea":"Lexington Av","ada":"0"},"geometry":{"type":"Point","coordinates":[-73.94425,40.79502]}},{"type":"Feature","properties":{"nombre":"Wall St","lineas":"2 3","borough":"Manhattan","linea":"Clark St","ada":"0"},"geometry":{"type":"Point","coordinates":[-74.0091,40.70682]}},{"type":"Feature","properties":{"nombre":"Beach 98 St","lineas":"A S","borough":"Queens","linea":"Rockaway","ada":"0"},"geometry":{"type":"Point","coordinates":[-73.82056,40.58531]}},{"type":"Feature","properties":{"nombre":"49 St","lineas":"N R W","borough":"Manhattan","linea":"Broadway - Brighton","ada":"2"},"geometry":{"type":"Point","coordinates":[-73.98414,40.7599]}},{"type":"Feature","properties":{"nombre":"155 St","lineas":"B D","borough":"Manhattan","linea":"Concourse","ada":"0"},"geometry":{"type":"Point","coordinates":[-73.93821,40.83013]}},{"type":"Feature","properties":{"nombre":"Huguenot","lineas":"SIR","borough":"Staten Island","linea":"Staten Island","ada":"0"},"geometry":{"type":"Point","coordinates":[-74.19179,40.53367]}},{"type":"Feature","properties":{"nombre":"Pennsylvania Av","lineas":"3","borough":"Brooklyn","linea":"Eastern Pky","ada":"0"},"geometry":{"type":"Point","coordinates":[-73.8949,40.66463]}},{"type":"Feature","properties":{"nombre":"46 St-Bliss St","lineas":"7","borough":"Queens","linea":"Flushing","ada":"0"},"geometry":{"type":"Point","coordinates":[-73.91844,40.74313]}},{"type":"Feature","properties":{"nombre":"E 180 St","lineas":"2 5","borough":"Bronx","linea":"Lenox - White Plains Rd","ada":"1"},"geometry":{"type":"Point","coordinates":[-73.87349,40.84189]}},{"type":"Feature","properties":{"nombre":"Burnside Av","lineas":"4","borough":"Bronx","linea":"Jerome Av","ada":"0"},"geometry":{"type":"Point","coordinates":[-73.90768,40.85345]}},{"type":"Feature","properties":{"nombre":"86 St","lineas":"Q","borough":"Manhattan","linea":"Second Av","ada":"1"},"geometry":{"type":"Point","coordinates":[-73.95179,40.77789]}},{"type":"Feature","properties":{"nombre":"5 Av/53 St","lineas":"E F","borough":"Manhattan","linea":"Queens Blvd","ada":"0"},"geometry":{"type":"Point","coordinates":[-73.97522,40.76017]}},{"type":"Feature","properties":{"nombre":"Broadway","lineas":"G","borough":"Brooklyn","linea":"Crosstown","ada":"0"},"geometry":{"type":"Point","coordinates":[-73.95031,40.70609]}},{"type":"Feature","properties":{"nombre":"59 St-Columbus Circle","lineas":"A C B D","borough":"Manhattan","linea":"8th Av - Fulton St","ada":"1"},"geometry":{"type":"Point","coordinates":[-73.98174,40.7683]}},{"type":"Feature","properties":{"nombre":"Cortlandt St","lineas":"R W","borough":"Manhattan","linea":"Broadway","ada":"1"},"geometry":{"type":"Point","coordinates":[-74.01103,40.71067]}},{"type":"Feature","properties":{"nombre":"Gun Hill Rd","lineas":"2 5","borough":"Bronx","linea":"Lenox - White Plains Rd","ada":"1"},"geometry":{"type":"Point","coordinates":[-73.86626,40.87785]}},{"type":"Feature","properties":{"nombre":"34 St-Penn Station","lineas":"1 2 3","borough":"Manhattan","linea":"Broadway - 7Av","ada":"1"},"geometry":{"type":"Point","coordinates":[-73.99106,40.75037]}},{"type":"Feature","properties":{"nombre":"Neck Rd","lineas":"Q","borough":"Brooklyn","linea":"Broadway - Brighton","ada":"0"},"geometry":{"type":"Point","coordinates":[-73.95516,40.59525]}},{"type":"Feature","properties":{"nombre":"Rockaway Blvd","lineas":"A","borough":"Queens","linea":"Liberty Av","ada":"1"},"geometry":{"type":"Point","coordinates":[-73.84385,40.68043]}},{"type":"Feature","properties":{"nombre":"Bay Ridge Av","lineas":"R","borough":"Brooklyn","linea":"4th Av","ada":"0"},"geometry":{"type":"Point","coordinates":[-74.02338,40.63497]}},{"type":"Feature","properties":{"nombre":"Coney Island-Stillwell Av","lineas":"D F N Q","borough":"Brooklyn","linea":"Sea Beach / West End / Culver / Brighton","ada":"1"},"geometry":{"type":"Point","coordinates":[-73.98123,40.57742]}},{"type":"Feature","properties":{"nombre":"68 St-Hunter College","lineas":"6","borough":"Manhattan","linea":"Lexington Av","ada":"1"},"geometry":{"type":"Point","coordinates":[-73.96387,40.76814]}},{"type":"Feature","properties":{"nombre":"Northern Blvd","lineas":"M R","borough":"Queens","linea":"Queens Blvd","ada":"1"},"geometry":{"type":"Point","coordinates":[-73.90601,40.75288]}},{"type":"Feature","properties":{"nombre":"Canarsie-Rockaway Pkwy","lineas":"L","borough":"Brooklyn","linea":"Canarsie","ada":"1"},"geometry":{"type":"Point","coordinates":[-73.90185,40.64665]}},{"type":"Feature","properties":{"nombre":"14 St","lineas":"A C E","borough":"Manhattan","linea":"8th Av - Fulton St","ada":"1"},"geometry":{"type":"Point","coordinates":[-74.00169,40.74089]}},{"type":"Feature","properties":{"nombre":"Court Sq","lineas":"G","borough":"Queens","linea":"Crosstown","ada":"1"},"geometry":{"type":"Point","coordinates":[-73.94383,40.74655]}},{"type":"Feature","properties":{"nombre":"Grand Army Plaza","lineas":"2 3","borough":"Brooklyn","linea":"Eastern Pky","ada":"0"},"geometry":{"type":"Point","coordinates":[-73.97105,40.67524]}},{"type":"Feature","properties":{"nombre":"Kosciuszko St","lineas":"J","borough":"Brooklyn","linea":"Jamaica","ada":"0"},"geometry":{"type":"Point","coordinates":[-73.92881,40.69334]}},{"type":"Feature","properties":{"nombre":"14 St","lineas":"F M","borough":"Manhattan","linea":"6th Av - Culver","ada":"1"},"geometry":{"type":"Point","coordinates":[-73.99621,40.73823]}},{"type":"Feature","properties":{"nombre":"Knickerbocker Av","lineas":"M","borough":"Brooklyn","linea":"Myrtle Av","ada":"0"},"geometry":{"type":"Point","coordinates":[-73.91971,40.69866]}},{"type":"Feature","properties":{"nombre":"Brook Av","lineas":"6","borough":"Bronx","linea":"Pelham","ada":"0"},"geometry":{"type":"Point","coordinates":[-73.91924,40.80757]}},{"type":"Feature","properties":{"nombre":"Aqueduct-N Conduit Av","lineas":"A","borough":"Queens","linea":"Rockaway","ada":"0"},"geometry":{"type":"Point","coordinates":[-73.83406,40.66823]}},{"type":"Feature","properties":{"nombre":"Oakwood Heights","lineas":"SIR","borough":"Staten Island","linea":"Staten Island","ada":"0"},"geometry":{"type":"Point","coordinates":[-74.12632,40.56511]}},{"type":"Feature","properties":{"nombre":"72 St","lineas":"1 2 3","borough":"Manhattan","linea":"Broadway - 7Av","ada":"1"},"geometry":{"type":"Point","coordinates":[-73.98197,40.77845]}},{"type":"Feature","properties":{"nombre":"71 St","lineas":"D","borough":"Brooklyn","linea":"West End","ada":"0"},"geometry":{"type":"Point","coordinates":[-73.99886,40.61959]}},{"type":"Feature","properties":{"nombre":"Crown Hts-Utica Av","lineas":"3 4","borough":"Brooklyn","linea":"Eastern Pky","ada":"1"},"geometry":{"type":"Point","coordinates":[-73.93294,40.6689]}},{"type":"Feature","properties":{"nombre":"82 St-Jackson Hts","lineas":"7","borough":"Queens","linea":"Flushing","ada":"0"},"geometry":{"type":"Point","coordinates":[-73.8837,40.74766]}},{"type":"Feature","properties":{"nombre":"Van Siclen Av","lineas":"J Z","borough":"Brooklyn","linea":"Jamaica","ada":"0"},"geometry":{"type":"Point","coordinates":[-73.89169,40.67802]}},{"type":"Feature","properties":{"nombre":"Graham Av","lineas":"L","borough":"Brooklyn","linea":"Canarsie","ada":"0"},"geometry":{"type":"Point","coordinates":[-73.94405,40.71457]}},{"type":"Feature","properties":{"nombre":"75 St-Elderts Ln","lineas":"J Z","borough":"Queens","linea":"Jamaica","ada":"0"},"geometry":{"type":"Point","coordinates":[-73.86714,40.69132]}},{"type":"Feature","properties":{"nombre":"Mets-Willets Point","lineas":"7","borough":"Queens","linea":"Flushing","ada":"0"},"geometry":{"type":"Point","coordinates":[-73.84562,40.75462]}},{"type":"Feature","properties":{"nombre":"Spring St","lineas":"6","borough":"Manhattan","linea":"Lexington Av","ada":"0"},"geometry":{"type":"Point","coordinates":[-73.99714,40.7223]}},{"type":"Feature","properties":{"nombre":"57 St","lineas":"M","borough":"Manhattan","linea":"6th Av - Culver","ada":"1"},"geometry":{"type":"Point","coordinates":[-73.97745,40.76397]}},{"type":"Feature","properties":{"nombre":"110 St-Malcolm X Plaza","lineas":"2 3","borough":"Manhattan","linea":"Lenox - White Plains Rd","ada":"0"},"geometry":{"type":"Point","coordinates":[-73.95182,40.79908]}},{"type":"Feature","properties":{"nombre":"96 St","lineas":"C B","borough":"Manhattan","linea":"8th Av - Fulton St","ada":"0"},"geometry":{"type":"Point","coordinates":[-73.9647,40.79164]}},{"type":"Feature","properties":{"nombre":"36 St","lineas":"D N R","borough":"Brooklyn","linea":"4th Av","ada":"0"},"geometry":{"type":"Point","coordinates":[-74.00355,40.65514]}},{"type":"Feature","properties":{"nombre":"Sutphin Blvd","lineas":"F","borough":"Queens","linea":"Queens Blvd","ada":"0"},"geometry":{"type":"Point","coordinates":[-73.81071,40.70546]}},{"type":"Feature","properties":{"nombre":"Euclid Av","lineas":"A C","borough":"Brooklyn","linea":"8th Av - Fulton St","ada":"1"},"geometry":{"type":"Point","coordinates":[-73.87211,40.67538]}},{"type":"Feature","properties":{"nombre":"Prince St","lineas":"R W","borough":"Manhattan","linea":"Broadway - Brighton","ada":"0"},"geometry":{"type":"Point","coordinates":[-73.9977,40.72433]}},{"type":"Feature","properties":{"nombre":"181 St","lineas":"1","borough":"Manhattan","linea":"Broadway - 7Av","ada":"0"},"geometry":{"type":"Point","coordinates":[-73.9336,40.84951]}},{"type":"Feature","properties":{"nombre":"Old Town","lineas":"SIR","borough":"Staten Island","linea":"Staten Island","ada":"0"},"geometry":{"type":"Point","coordinates":[-74.08737,40.59661]}},{"type":"Feature","properties":{"nombre":"Canal St","lineas":"A C E","borough":"Manhattan","linea":"8th Av - Fulton St","ada":"0"},"geometry":{"type":"Point","coordinates":[-74.00523,40.72082]}},{"type":"Feature","properties":{"nombre":"Inwood-207 St","lineas":"A","borough":"Manhattan","linea":"8th Av - Fulton St","ada":"1"},"geometry":{"type":"Point","coordinates":[-73.9199,40.86807]}},{"type":"Feature","properties":{"nombre":"Avenue J","lineas":"Q","borough":"Brooklyn","linea":"Broadway - Brighton","ada":"0"},"geometry":{"type":"Point","coordinates":[-73.9608,40.62504]}},{"type":"Feature","properties":{"nombre":"Beverly Rd","lineas":"2 5","borough":"Brooklyn","linea":"Nostrand","ada":"0"},"geometry":{"type":"Point","coordinates":[-73.94896,40.6451]}},{"type":"Feature","properties":{"nombre":"90 St-Elmhurst Av","lineas":"7","borough":"Queens","linea":"Flushing","ada":"0"},"geometry":{"type":"Point","coordinates":[-73.87661,40.74841]}},{"type":"Feature","properties":{"nombre":"Hewes St","lineas":"M J","borough":"Brooklyn","linea":"Jamaica","ada":"0"},"geometry":{"type":"Point","coordinates":[-73.95343,40.70687]}},{"type":"Feature","properties":{"nombre":"Bedford Park Blvd-Lehman College","lineas":"4","borough":"Bronx","linea":"Jerome Av","ada":"0"},"geometry":{"type":"Point","coordinates":[-73.89006,40.87341]}},{"type":"Feature","properties":{"nombre":"14 St-Union Sq","lineas":"L","borough":"Manhattan","linea":"Canarsie","ada":"1"},"geometry":{"type":"Point","coordinates":[-73.99073,40.73479]}},{"type":"Feature","properties":{"nombre":"Morgan Av","lineas":"L","borough":"Brooklyn","linea":"Canarsie","ada":"0"},"geometry":{"type":"Point","coordinates":[-73.93315,40.70615]}},{"type":"Feature","properties":{"nombre":"47-50 Sts-Rockefeller Ctr","lineas":"B D F M","borough":"Manhattan","linea":"6th Av - Culver","ada":"1"},"geometry":{"type":"Point","coordinates":[-73.98133,40.75866]}},{"type":"Feature","properties":{"nombre":"Court Sq","lineas":"7","borough":"Queens","linea":"Flushing","ada":"1"},"geometry":{"type":"Point","coordinates":[-73.94526,40.74702]}},{"type":"Feature","properties":{"nombre":"Canal St","lineas":"1","borough":"Manhattan","linea":"Broadway - 7Av","ada":"0"},"geometry":{"type":"Point","coordinates":[-74.00628,40.72285]}},{"type":"Feature","properties":{"nombre":"104 St","lineas":"A","borough":"Queens","linea":"Liberty Av","ada":"0"},"geometry":{"type":"Point","coordinates":[-73.83768,40.68171]}},{"type":"Feature","properties":{"nombre":"Chambers St","lineas":"J Z","borough":"Manhattan","linea":"Jamaica","ada":"1"},"geometry":{"type":"Point","coordinates":[-74.0034,40.71324]}},{"type":"Feature","properties":{"nombre":"3 Av","lineas":"L","borough":"Manhattan","linea":"Canarsie","ada":"0"},"geometry":{"type":"Point","coordinates":[-73.98612,40.73285]}},{"type":"Feature","properties":{"nombre":"Kingsbridge Rd","lineas":"B D","borough":"Bronx","linea":"Concourse","ada":"1"},"geometry":{"type":"Point","coordinates":[-73.89351,40.86698]}},{"type":"Feature","properties":{"nombre":"Kingston Av","lineas":"3","borough":"Brooklyn","linea":"Eastern Pky","ada":"0"},"geometry":{"type":"Point","coordinates":[-73.94216,40.6694]}},{"type":"Feature","properties":{"nombre":"Rector St","lineas":"R W","borough":"Manhattan","linea":"Broadway","ada":"0"},"geometry":{"type":"Point","coordinates":[-74.01334,40.70722]}},{"type":"Feature","properties":{"nombre":"Cypress Hills","lineas":"J","borough":"Brooklyn","linea":"Jamaica","ada":"0"},"geometry":{"type":"Point","coordinates":[-73.87255,40.68994]}},{"type":"Feature","properties":{"nombre":"High St","lineas":"A C","borough":"Brooklyn","linea":"8th Av - Fulton St","ada":"0"},"geometry":{"type":"Point","coordinates":[-73.99053,40.69934]}},{"type":"Feature","properties":{"nombre":"Forest Hills-71 Av","lineas":"E F M R","borough":"Queens","linea":"Queens Blvd","ada":"1"},"geometry":{"type":"Point","coordinates":[-73.84452,40.72169]}},{"type":"Feature","properties":{"nombre":"Wilson Av","lineas":"L","borough":"Brooklyn","linea":"Canarsie","ada":"2"},"geometry":{"type":"Point","coordinates":[-73.90405,40.68876]}},{"type":"Feature","properties":{"nombre":"Bedford-Nostrand Avs","lineas":"G","borough":"Brooklyn","linea":"Crosstown","ada":"0"},"geometry":{"type":"Point","coordinates":[-73.95352,40.68963]}},{"type":"Feature","properties":{"nombre":"Arthur Kill","lineas":"SIR","borough":"Staten Island","linea":"Staten Island","ada":"1"},"geometry":{"type":"Point","coordinates":[-74.2421,40.51658]}},{"type":"Feature","properties":{"nombre":"Livonia Av","lineas":"L","borough":"Brooklyn","linea":"Canarsie","ada":"1"},"geometry":{"type":"Point","coordinates":[-73.90057,40.66404]}},{"type":"Feature","properties":{"nombre":"18 St","lineas":"1","borough":"Manhattan","linea":"Broadway - 7Av","ada":"0"},"geometry":{"type":"Point","coordinates":[-73.99787,40.74104]}},{"type":"Feature","properties":{"nombre":"Halsey St","lineas":"L","borough":"Queens","linea":"Canarsie","ada":"0"},"geometry":{"type":"Point","coordinates":[-73.90408,40.6956]}},{"type":"Feature","properties":{"nombre":"5 Av","lineas":"7","borough":"Manhattan","linea":"Flushing","ada":"0"},"geometry":{"type":"Point","coordinates":[-73.98196,40.75382]}},{"type":"Feature","properties":{"nombre":"Carroll St","lineas":"F G","borough":"Brooklyn","linea":"6th Av - Culver","ada":"0"},"geometry":{"type":"Point","coordinates":[-73.99505,40.6803]}},{"type":"Feature","properties":{"nombre":"President St-Medgar Evers College","lineas":"2 5","borough":"Brooklyn","linea":"Nostrand","ada":"0"},"geometry":{"type":"Point","coordinates":[-73.95068,40.66788]}},{"type":"Feature","properties":{"nombre":"Ditmas Av","lineas":"F","borough":"Brooklyn","linea":"6th Av - Culver","ada":"0"},"geometry":{"type":"Point","coordinates":[-73.97817,40.63612]}},{"type":"Feature","properties":{"nombre":"Kings Hwy","lineas":"F","borough":"Brooklyn","linea":"6th Av - Culver","ada":"1"},"geometry":{"type":"Point","coordinates":[-73.97236,40.60322]}},{"type":"Feature","properties":{"nombre":"149 St-Hostos","lineas":"4","borough":"Bronx","linea":"Jerome Av","ada":"1"},"geometry":{"type":"Point","coordinates":[-73.92735,40.81838]}},{"type":"Feature","properties":{"nombre":"New Dorp","lineas":"SIR","borough":"Staten Island","linea":"Staten Island","ada":"1"},"geometry":{"type":"Point","coordinates":[-74.11721,40.57348]}},{"type":"Feature","properties":{"nombre":"Beach 60 St","lineas":"A","borough":"Queens","linea":"Rockaway","ada":"0"},"geometry":{"type":"Point","coordinates":[-73.78852,40.59237]}},{"type":"Feature","properties":{"nombre":"149 St-Hostos","lineas":"2 5","borough":"Bronx","linea":"Lenox - White Plains Rd","ada":"1"},"geometry":{"type":"Point","coordinates":[-73.92672,40.81841]}},{"type":"Feature","properties":{"nombre":"Atlantic Av-Barclays Ctr","lineas":"D N R","borough":"Brooklyn","linea":"4th Av","ada":"1"},"geometry":{"type":"Point","coordinates":[-73.97881,40.68367]}},{"type":"Feature","properties":{"nombre":"Burke Av","lineas":"2 5","borough":"Bronx","linea":"Lenox - White Plains Rd","ada":"0"},"geometry":{"type":"Point","coordinates":[-73.86716,40.87136]}},{"type":"Feature","properties":{"nombre":"7 Av","lineas":"B Q","borough":"Brooklyn","linea":"Broadway - Brighton","ada":"0"},"geometry":{"type":"Point","coordinates":[-73.97237,40.67705]}},{"type":"Feature","properties":{"nombre":"Sheepshead Bay","lineas":"B Q","borough":"Brooklyn","linea":"Broadway - Brighton","ada":"1"},"geometry":{"type":"Point","coordinates":[-73.95416,40.5869]}},{"type":"Feature","properties":{"nombre":"9 Av","lineas":"D","borough":"Brooklyn","linea":"West End","ada":"0"},"geometry":{"type":"Point","coordinates":[-73.99432,40.64629]}},{"type":"Feature","properties":{"nombre":"W 4 St-Wash Sq","lineas":"A C E","borough":"Manhattan","linea":"8th Av - Fulton St","ada":"1"},"geometry":{"type":"Point","coordinates":[-74.0005,40.73234]}},{"type":"Feature","properties":{"nombre":"Jamaica-Van Wyck","lineas":"E","borough":"Queens","linea":"Queens - Archer","ada":"1"},"geometry":{"type":"Point","coordinates":[-73.81686,40.70257]}},{"type":"Feature","properties":{"nombre":"21 St","lineas":"G","borough":"Queens","linea":"Crosstown","ada":"0"},"geometry":{"type":"Point","coordinates":[-73.94972,40.74406]}},{"type":"Feature","properties":{"nombre":"155 St","lineas":"C","borough":"Manhattan","linea":"8th Av - Fulton St","ada":"0"},"geometry":{"type":"Point","coordinates":[-73.94151,40.83052]}},{"type":"Feature","properties":{"nombre":"167 St","lineas":"4","borough":"Bronx","linea":"Jerome Av","ada":"0"},"geometry":{"type":"Point","coordinates":[-73.9214,40.83554]}},{"type":"Feature","properties":{"nombre":"Van Cortlandt Park-242 St","lineas":"1","borough":"Bronx","linea":"Broadway - 7Av","ada":"0"},"geometry":{"type":"Point","coordinates":[-73.89858,40.88925]}},{"type":"Feature","properties":{"nombre":"50 St","lineas":"C E","borough":"Manhattan","linea":"8th Av - Fulton St","ada":"2"},"geometry":{"type":"Point","coordinates":[-73.98598,40.76246]}},{"type":"Feature","properties":{"nombre":"33 St","lineas":"6","borough":"Manhattan","linea":"Lexington Av","ada":"0"},"geometry":{"type":"Point","coordinates":[-73.98208,40.74608]}},{"type":"Feature","properties":{"nombre":"79 St","lineas":"1","borough":"Manhattan","linea":"Broadway - 7Av","ada":"0"},"geometry":{"type":"Point","coordinates":[-73.97992,40.78393]}},{"type":"Feature","properties":{"nombre":"Kingston-Throop Avs","lineas":"C","borough":"Brooklyn","linea":"8th Av - Fulton St","ada":"0"},"geometry":{"type":"Point","coordinates":[-73.94086,40.67992]}},{"type":"Feature","properties":{"nombre":"219 St","lineas":"2 5","borough":"Bronx","linea":"Lenox - White Plains Rd","ada":"0"},"geometry":{"type":"Point","coordinates":[-73.86263,40.8839]}},{"type":"Feature","properties":{"nombre":"Grand Av-Newtown","lineas":"M R","borough":"Queens","linea":"Queens Blvd","ada":"0"},"geometry":{"type":"Point","coordinates":[-73.87722,40.73701]}},{"type":"Feature","properties":{"nombre":"New Utrecht Av","lineas":"N","borough":"Brooklyn","linea":"Sea Beach","ada":"1"},"geometry":{"type":"Point","coordinates":[-73.99635,40.62484]}},{"type":"Feature","properties":{"nombre":"145 St","lineas":"A C","borough":"Manhattan","linea":"8th Av - Fulton St","ada":"0"},"geometry":{"type":"Point","coordinates":[-73.94422,40.82478]}},{"type":"Feature","properties":{"nombre":"Broadway","lineas":"N W","borough":"Queens","linea":"Astoria","ada":"0"},"geometry":{"type":"Point","coordinates":[-73.92551,40.76182]}},{"type":"Feature","properties":{"nombre":"Lafayette Av","lineas":"C","borough":"Brooklyn","linea":"8th Av - Fulton St","ada":"0"},"geometry":{"type":"Point","coordinates":[-73.97395,40.68611]}},{"type":"Feature","properties":{"nombre":"Avenue U","lineas":"Q","borough":"Brooklyn","linea":"Broadway - Brighton","ada":"0"},"geometry":{"type":"Point","coordinates":[-73.95593,40.5993]}},{"type":"Feature","properties":{"nombre":"88 St","lineas":"A","borough":"Queens","linea":"Liberty Av","ada":"0"},"geometry":{"type":"Point","coordinates":[-73.85147,40.67984]}},{"type":"Feature","properties":{"nombre":"25 St","lineas":"R","borough":"Brooklyn","linea":"4th Av","ada":"0"},"geometry":{"type":"Point","coordinates":[-73.99809,40.6604]}},{"type":"Feature","properties":{"nombre":"46 St","lineas":"M R","borough":"Queens","linea":"Queens Blvd","ada":"0"},"geometry":{"type":"Point","coordinates":[-73.91333,40.75631]}},{"type":"Feature","properties":{"nombre":"Fulton St","lineas":"G","borough":"Brooklyn","linea":"Crosstown","ada":"0"},"geometry":{"type":"Point","coordinates":[-73.97537,40.68712]}},{"type":"Feature","properties":{"nombre":"Canal St","lineas":"6","borough":"Manhattan","linea":"Lexington Av","ada":"1"},"geometry":{"type":"Point","coordinates":[-74.00019,40.7188]}},{"type":"Feature","properties":{"nombre":"Borough Hall","lineas":"4 5","borough":"Brooklyn","linea":"Eastern Pky","ada":"1"},"geometry":{"type":"Point","coordinates":[-73.99015,40.6924]}},{"type":"Feature","properties":{"nombre":"116 St-Columbia University","lineas":"1","borough":"Manhattan","linea":"Broadway - 7Av","ada":"0"},"geometry":{"type":"Point","coordinates":[-73.96411,40.80772]}},{"type":"Feature","properties":{"nombre":"Parkchester","lineas":"6","borough":"Bronx","linea":"Pelham","ada":"1"},"geometry":{"type":"Point","coordinates":[-73.86082,40.83323]}},{"type":"Feature","properties":{"nombre":"23 St-Baruch College","lineas":"6","borough":"Manhattan","linea":"Lexington Av","ada":"1"},"geometry":{"type":"Point","coordinates":[-73.9866,40.73986]}},{"type":"Feature","properties":{"nombre":"Beach 67 St","lineas":"A","borough":"Queens","linea":"Rockaway","ada":"1"},"geometry":{"type":"Point","coordinates":[-73.79692,40.59093]}},{"type":"Feature","properties":{"nombre":"183 St","lineas":"4","borough":"Bronx","linea":"Jerome Av","ada":"0"},"geometry":{"type":"Point","coordinates":[-73.90388,40.85841]}},{"type":"Feature","properties":{"nombre":"Lexington Av/53 St","lineas":"E F","borough":"Manhattan","linea":"Queens Blvd","ada":"1"},"geometry":{"type":"Point","coordinates":[-73.96905,40.75755]}},{"type":"Feature","properties":{"nombre":"Prospect Park","lineas":"B Q S","borough":"Brooklyn","linea":"Broadway - Brighton","ada":"1"},"geometry":{"type":"Point","coordinates":[-73.96225,40.66161]}},{"type":"Feature","properties":{"nombre":"28 St","lineas":"1","borough":"Manhattan","linea":"Broadway - 7Av","ada":"0"},"geometry":{"type":"Point","coordinates":[-73.99336,40.74721]}},{"type":"Feature","properties":{"nombre":"City Hall","lineas":"R W","borough":"Manhattan","linea":"Broadway","ada":"0"},"geometry":{"type":"Point","coordinates":[-74.00698,40.71328]}},{"type":"Feature","properties":{"nombre":"75 Av","lineas":"E F","borough":"Queens","linea":"Queens Blvd","ada":"0"},"geometry":{"type":"Point","coordinates":[-73.83732,40.71833]}},{"type":"Feature","properties":{"nombre":"18 Av","lineas":"N","borough":"Brooklyn","linea":"Sea Beach","ada":"0"},"geometry":{"type":"Point","coordinates":[-73.99041,40.62067]}},{"type":"Feature","properties":{"nombre":"Times Sq-42 St","lineas":"N Q R W","borough":"Manhattan","linea":"Broadway - Brighton","ada":"1"},"geometry":{"type":"Point","coordinates":[-73.98675,40.75467]}},{"type":"Feature","properties":{"nombre":"168 St-Washington Hts","lineas":"1","borough":"Manhattan","linea":"Broadway - 7Av","ada":"0"},"geometry":{"type":"Point","coordinates":[-73.94013,40.84056]}},{"type":"Feature","properties":{"nombre":"145 St","lineas":"3","borough":"Manhattan","linea":"Lenox - White Plains Rd","ada":"0"},"geometry":{"type":"Point","coordinates":[-73.93624,40.82042]}},{"type":"Feature","properties":{"nombre":"181 St","lineas":"A","borough":"Manhattan","linea":"8th Av - Fulton St","ada":"1"},"geometry":{"type":"Point","coordinates":[-73.93797,40.85169]}},{"type":"Feature","properties":{"nombre":"215 St","lineas":"1","borough":"Manhattan","linea":"Broadway - 7Av","ada":"0"},"geometry":{"type":"Point","coordinates":[-73.91528,40.86944]}},{"type":"Feature","properties":{"nombre":"Gates Av","lineas":"J Z","borough":"Brooklyn","linea":"Jamaica","ada":"0"},"geometry":{"type":"Point","coordinates":[-73.92227,40.68963]}},{"type":"Feature","properties":{"nombre":"40 St-Lowery St","lineas":"7","borough":"Queens","linea":"Flushing","ada":"0"},"geometry":{"type":"Point","coordinates":[-73.92402,40.74378]}},{"type":"Feature","properties":{"nombre":"Bergen St","lineas":"F G","borough":"Brooklyn","linea":"6th Av - Culver","ada":"0"},"geometry":{"type":"Point","coordinates":[-73.99086,40.68615]}},{"type":"Feature","properties":{"nombre":"Utica Av","lineas":"A C","borough":"Brooklyn","linea":"8th Av - Fulton St","ada":"1"},"geometry":{"type":"Point","coordinates":[-73.93073,40.67936]}},{"type":"Feature","properties":{"nombre":"72 St","lineas":"Q","borough":"Manhattan","linea":"Second Av","ada":"1"},"geometry":{"type":"Point","coordinates":[-73.95842,40.7688]}},{"type":"Feature","properties":{"nombre":"Clark St","lineas":"2 3","borough":"Brooklyn","linea":"Clark St","ada":"0"},"geometry":{"type":"Point","coordinates":[-73.99309,40.69747]}},{"type":"Feature","properties":{"nombre":"72 St","lineas":"C B","borough":"Manhattan","linea":"8th Av - Fulton St","ada":"0"},"geometry":{"type":"Point","coordinates":[-73.97641,40.77559]}},{"type":"Feature","properties":{"nombre":"Shepherd Av","lineas":"C","borough":"Brooklyn","linea":"8th Av - Fulton St","ada":"0"},"geometry":{"type":"Point","coordinates":[-73.88075,40.67413]}},{"type":"Feature","properties":{"nombre":"59 St","lineas":"N R","borough":"Brooklyn","linea":"4th Av","ada":"1"},"geometry":{"type":"Point","coordinates":[-74.01788,40.64136]}},{"type":"Feature","properties":{"nombre":"Fulton St","lineas":"A C","borough":"Manhattan","linea":"8th Av - Fulton St","ada":"1"},"geometry":{"type":"Point","coordinates":[-74.00769,40.7102]}},{"type":"Feature","properties":{"nombre":"Buhre Av","lineas":"6","borough":"Bronx","linea":"Pelham","ada":"0"},"geometry":{"type":"Point","coordinates":[-73.83257,40.84681]}},{"type":"Feature","properties":{"nombre":"161 St-Yankee Stadium","lineas":"B D","borough":"Bronx","linea":"Concourse","ada":"1"},"geometry":{"type":"Point","coordinates":[-73.92565,40.82791]}},{"type":"Feature","properties":{"nombre":"77 St","lineas":"6","borough":"Manhattan","linea":"Lexington Av","ada":"0"},"geometry":{"type":"Point","coordinates":[-73.95987,40.77362]}},{"type":"Feature","properties":{"nombre":"Avenue H","lineas":"Q","borough":"Brooklyn","linea":"Broadway - Brighton","ada":"1"},"geometry":{"type":"Point","coordinates":[-73.96164,40.62927]}},{"type":"Feature","properties":{"nombre":"Rector St","lineas":"1","borough":"Manhattan","linea":"Broadway - 7Av","ada":"0"},"geometry":{"type":"Point","coordinates":[-74.01378,40.70751]}},{"type":"Feature","properties":{"nombre":"39 Av-Dutch Kills","lineas":"N W","borough":"Queens","linea":"Astoria","ada":"0"},"geometry":{"type":"Point","coordinates":[-73.93276,40.75288]}},{"type":"Feature","properties":{"nombre":"Broadway-Lafayette St","lineas":"B D F M","borough":"Manhattan","linea":"6th Av - Culver","ada":"1"},"geometry":{"type":"Point","coordinates":[-73.9962,40.7253]}},{"type":"Feature","properties":{"nombre":"Bay Terrace","lineas":"SIR","borough":"Staten Island","linea":"Staten Island","ada":"0"},"geometry":{"type":"Point","coordinates":[-74.13691,40.5564]}},{"type":"Feature","properties":{"nombre":"121 St","lineas":"J Z","borough":"Queens","linea":"Jamaica","ada":"0"},"geometry":{"type":"Point","coordinates":[-73.82829,40.70049]}},{"type":"Feature","properties":{"nombre":"Houston St","lineas":"1","borough":"Manhattan","linea":"Broadway - 7Av","ada":"0"},"geometry":{"type":"Point","coordinates":[-74.00537,40.72825]}},{"type":"Feature","properties":{"nombre":"169 St","lineas":"F","borough":"Queens","linea":"Queens Blvd","ada":"0"},"geometry":{"type":"Point","coordinates":[-73.7936,40.71047]}},{"type":"Feature","properties":{"nombre":"18 Av","lineas":"F","borough":"Brooklyn","linea":"6th Av - Culver","ada":"0"},"geometry":{"type":"Point","coordinates":[-73.97697,40.62976]}},{"type":"Feature","properties":{"nombre":"Eastchester-Dyre Av","lineas":"5","borough":"Bronx","linea":"Dyre Av","ada":"0"},"geometry":{"type":"Point","coordinates":[-73.83083,40.8883]}},{"type":"Feature","properties":{"nombre":"Flushing Av","lineas":"G","borough":"Brooklyn","linea":"Crosstown","ada":"0"},"geometry":{"type":"Point","coordinates":[-73.95023,40.70038]}},{"type":"Feature","properties":{"nombre":"62 St","lineas":"D","borough":"Brooklyn","linea":"West End","ada":"1"},"geometry":{"type":"Point","coordinates":[-73.99689,40.62647]}},{"type":"Feature","properties":{"nombre":"Sutter Av-Rutland Rd","lineas":"3","borough":"Brooklyn","linea":"Eastern Pky","ada":"0"},"geometry":{"type":"Point","coordinates":[-73.92261,40.66472]}},{"type":"Feature","properties":{"nombre":"West Farms Sq-E Tremont Av","lineas":"2 5","borough":"Bronx","linea":"Lenox - White Plains Rd","ada":"0"},"geometry":{"type":"Point","coordinates":[-73.88005,40.84029]}},{"type":"Feature","properties":{"nombre":"103 St","lineas":"6","borough":"Manhattan","linea":"Lexington Av","ada":"0"},"geometry":{"type":"Point","coordinates":[-73.94748,40.7906]}},{"type":"Feature","properties":{"nombre":"Beach 25 St","lineas":"A","borough":"Queens","linea":"Rockaway","ada":"0"},"geometry":{"type":"Point","coordinates":[-73.76135,40.60007]}},{"type":"Feature","properties":{"nombre":"Fulton St","lineas":"J Z","borough":"Manhattan","linea":"Jamaica","ada":"1"},"geometry":{"type":"Point","coordinates":[-74.00758,40.71037]}},{"type":"Feature","properties":{"nombre":"8 St-NYU","lineas":"R W","borough":"Manhattan","linea":"Broadway - Brighton","ada":"0"},"geometry":{"type":"Point","coordinates":[-73.99263,40.73033]}},{"type":"Feature","properties":{"nombre":"Grand St","lineas":"L","borough":"Brooklyn","linea":"Canarsie","ada":"1"},"geometry":{"type":"Point","coordinates":[-73.94067,40.71193]}},{"type":"Feature","properties":{"nombre":"Times Sq-42 St","lineas":"S","borough":"Manhattan","linea":"Lexington - Shuttle","ada":"1"},"geometry":{"type":"Point","coordinates":[-73.98623,40.75598]}},{"type":"Feature","properties":{"nombre":"Prince's Bay","lineas":"SIR","borough":"Staten Island","linea":"Staten Island","ada":"0"},"geometry":{"type":"Point","coordinates":[-74.20006,40.52551]}},{"type":"Feature","properties":{"nombre":"Van Siclen Av","lineas":"3","borough":"Brooklyn","linea":"Eastern Pky","ada":"0"},"geometry":{"type":"Point","coordinates":[-73.88939,40.66545]}},{"type":"Feature","properties":{"nombre":"Flushing-Main St","lineas":"7","borough":"Queens","linea":"Flushing","ada":"1"},"geometry":{"type":"Point","coordinates":[-73.83003,40.7596]}},{"type":"Feature","properties":{"nombre":"Botanic Garden","lineas":"S","borough":"Brooklyn","linea":"Franklin Shuttle","ada":"0"},"geometry":{"type":"Point","coordinates":[-73.95924,40.67034]}},{"type":"Feature","properties":{"nombre":"Fordham Rd","lineas":"B D","borough":"Bronx","linea":"Concourse","ada":"0"},"geometry":{"type":"Point","coordinates":[-73.89775,40.8613]}},{"type":"Feature","properties":{"nombre":"Bergen St","lineas":"2 3","borough":"Brooklyn","linea":"Eastern Pky","ada":"0"},"geometry":{"type":"Point","coordinates":[-73.9751,40.68083]}},{"type":"Feature","properties":{"nombre":"Myrtle-Wyckoff Avs","lineas":"M","borough":"Brooklyn","linea":"Myrtle Av","ada":"1"},"geometry":{"type":"Point","coordinates":[-73.91239,40.69943]}},{"type":"Feature","properties":{"nombre":"66 St-Lincoln Center","lineas":"1","borough":"Manhattan","linea":"Broadway - 7Av","ada":"1"},"geometry":{"type":"Point","coordinates":[-73.98221,40.77344]}},{"type":"Feature","properties":{"nombre":"7 Av","lineas":"F G","borough":"Brooklyn","linea":"6th Av - Culver","ada":"1"},"geometry":{"type":"Point","coordinates":[-73.98031,40.66627]}},{"type":"Feature","properties":{"nombre":"Cypress Av","lineas":"6","borough":"Bronx","linea":"Pelham","ada":"0"},"geometry":{"type":"Point","coordinates":[-73.91404,40.80537]}},{"type":"Feature","properties":{"nombre":"103 St","lineas":"C B","borough":"Manhattan","linea":"8th Av - Fulton St","ada":"0"},"geometry":{"type":"Point","coordinates":[-73.96145,40.79609]}},{"type":"Feature","properties":{"nombre":"Howard Beach-JFK Airport","lineas":"A","borough":"Queens","linea":"Rockaway","ada":"1"},"geometry":{"type":"Point","coordinates":[-73.8303,40.66048]}},{"type":"Feature","properties":{"nombre":"Church Av","lineas":"2 5","borough":"Brooklyn","linea":"Nostrand","ada":"1"},"geometry":{"type":"Point","coordinates":[-73.94957,40.65084]}},{"type":"Feature","properties":{"nombre":"74 St-Broadway","lineas":"7","borough":"Queens","linea":"Flushing","ada":"1"},"geometry":{"type":"Point","coordinates":[-73.89139,40.74685]}},{"type":"Feature","properties":{"nombre":"Alabama Av","lineas":"J Z","borough":"Brooklyn","linea":"Jamaica","ada":"0"},"geometry":{"type":"Point","coordinates":[-73.89865,40.67699]}},{"type":"Feature","properties":{"nombre":"Bushwick Av-Aberdeen St","lineas":"L","borough":"Brooklyn","linea":"Canarsie","ada":"0"},"geometry":{"type":"Point","coordinates":[-73.90525,40.68283]}},{"type":"Feature","properties":{"nombre":"Union St","lineas":"R","borough":"Brooklyn","linea":"4th Av","ada":"0"},"geometry":{"type":"Point","coordinates":[-73.98311,40.67732]}},{"type":"Feature","properties":{"nombre":"Grand Central-42 St","lineas":"4 5 6","borough":"Manhattan","linea":"Lexington Av","ada":"1"},"geometry":{"type":"Point","coordinates":[-73.97685,40.75178]}},{"type":"Feature","properties":{"nombre":"85 St-Forest Pkwy","lineas":"J","borough":"Queens","linea":"Jamaica","ada":"0"},"geometry":{"type":"Point","coordinates":[-73.86001,40.69244]}},{"type":"Feature","properties":{"nombre":"Lexington Av/63 St","lineas":"M Q","borough":"Manhattan","linea":"63rd St","ada":"1"},"geometry":{"type":"Point","coordinates":[-73.96611,40.76463]}},{"type":"Feature","properties":{"nombre":"Whitehall St-South Ferry","lineas":"R W","borough":"Manhattan","linea":"Broadway","ada":"0"},"geometry":{"type":"Point","coordinates":[-74.01299,40.70309]}},{"type":"Feature","properties":{"nombre":"Simpson St","lineas":"2 5","borough":"Bronx","linea":"Lenox - White Plains Rd","ada":"1"},"geometry":{"type":"Point","coordinates":[-73.89306,40.82407]}},{"type":"Feature","properties":{"nombre":"New Lots Av","lineas":"L","borough":"Brooklyn","linea":"Canarsie","ada":"0"},"geometry":{"type":"Point","coordinates":[-73.89923,40.65873]}},{"type":"Feature","properties":{"nombre":"Allerton Av","lineas":"2 5","borough":"Bronx","linea":"Lenox - White Plains Rd","ada":"0"},"geometry":{"type":"Point","coordinates":[-73.86735,40.86546]}},{"type":"Feature","properties":{"nombre":"42 St-Bryant Pk","lineas":"B D F M","borough":"Manhattan","linea":"6th Av - Culver","ada":"0"},"geometry":{"type":"Point","coordinates":[-73.98457,40.75422]}},{"type":"Feature","properties":{"nombre":"Avenue U","lineas":"F","borough":"Brooklyn","linea":"6th Av - Culver","ada":"0"},"geometry":{"type":"Point","coordinates":[-73.97336,40.59606]}},{"type":"Feature","properties":{"nombre":"138 St-Grand Concourse","lineas":"4 5","borough":"Bronx","linea":"Jerome Av","ada":"0"},"geometry":{"type":"Point","coordinates":[-73.92985,40.81322]}},{"type":"Feature","properties":{"nombre":"20 Av","lineas":"D","borough":"Brooklyn","linea":"West End","ada":"0"},"geometry":{"type":"Point","coordinates":[-73.99817,40.60456]}},{"type":"Feature","properties":{"nombre":"Fort Hamilton Pkwy","lineas":"D","borough":"Brooklyn","linea":"West End","ada":"0"},"geometry":{"type":"Point","coordinates":[-73.9943,40.64091]}},{"type":"Feature","properties":{"nombre":"15 St-Prospect Park","lineas":"F G","borough":"Brooklyn","linea":"6th Av - Culver","ada":"0"},"geometry":{"type":"Point","coordinates":[-73.97949,40.66036]}},{"type":"Feature","properties":{"nombre":"WTC Cortlandt","lineas":"1","borough":"Manhattan","linea":"Broadway - 7Av","ada":"1"},"geometry":{"type":"Point","coordinates":[-74.01219,40.71184]}},{"type":"Feature","properties":{"nombre":"W 4 St-Wash Sq","lineas":"B D F M","borough":"Manhattan","linea":"6th Av - Culver","ada":"1"},"geometry":{"type":"Point","coordinates":[-74.0005,40.73234]}},{"type":"Feature","properties":{"nombre":"Greenpoint Av","lineas":"G","borough":"Brooklyn","linea":"Crosstown","ada":"1"},"geometry":{"type":"Point","coordinates":[-73.95445,40.73135]}},{"type":"Feature","properties":{"nombre":"Delancey St-Essex St","lineas":"M J Z","borough":"Manhattan","linea":"Jamaica","ada":"0"},"geometry":{"type":"Point","coordinates":[-73.98744,40.71831]}},{"type":"Feature","properties":{"nombre":"1 Av","lineas":"L","borough":"Manhattan","linea":"Canarsie","ada":"1"},"geometry":{"type":"Point","coordinates":[-73.98163,40.73095]}},{"type":"Feature","properties":{"nombre":"Brighton Beach","lineas":"B Q","borough":"Brooklyn","linea":"Broadway - Brighton","ada":"0"},"geometry":{"type":"Point","coordinates":[-73.96138,40.57762]}},{"type":"Feature","properties":{"nombre":"42 St-Port Authority Bus Terminal","lineas":"A C E","borough":"Manhattan","linea":"8th Av - Fulton St","ada":"1"},"geometry":{"type":"Point","coordinates":[-73.98973,40.75731]}},{"type":"Feature","properties":{"nombre":"30 Av","lineas":"N W","borough":"Queens","linea":"Astoria","ada":"0"},"geometry":{"type":"Point","coordinates":[-73.92148,40.76678]}},{"type":"Feature","properties":{"nombre":"Mosholu Pkwy","lineas":"4","borough":"Bronx","linea":"Jerome Av","ada":"1"},"geometry":{"type":"Point","coordinates":[-73.88465,40.87975]}},{"type":"Feature","properties":{"nombre":"Far Rockaway-Mott Av","lineas":"A","borough":"Queens","linea":"Rockaway","ada":"1"},"geometry":{"type":"Point","coordinates":[-73.7554,40.60399]}},{"type":"Feature","properties":{"nombre":"6 Av","lineas":"L","borough":"Manhattan","linea":"Canarsie","ada":"1"},"geometry":{"type":"Point","coordinates":[-73.99679,40.73734]}},{"type":"Feature","properties":{"nombre":"Pelham Bay Park","lineas":"6","borough":"Bronx","linea":"Pelham","ada":"1"},"geometry":{"type":"Point","coordinates":[-73.82812,40.85246]}},{"type":"Feature","properties":{"nombre":"Grand Central-42 St","lineas":"7","borough":"Manhattan","linea":"Flushing","ada":"1"},"geometry":{"type":"Point","coordinates":[-73.97604,40.75143]}},{"type":"Feature","properties":{"nombre":"Hunts Point Av","lineas":"6","borough":"Bronx","linea":"Pelham","ada":"1"},"geometry":{"type":"Point","coordinates":[-73.89055,40.82095]}},{"type":"Feature","properties":{"nombre":"Grasmere","lineas":"SIR","borough":"Staten Island","linea":"Staten Island","ada":"0"},"geometry":{"type":"Point","coordinates":[-74.08409,40.60312]}},{"type":"Feature","properties":{"nombre":"Crescent St","lineas":"J Z","borough":"Brooklyn","linea":"Jamaica","ada":"0"},"geometry":{"type":"Point","coordinates":[-73.87378,40.68319]}},{"type":"Feature","properties":{"nombre":"111 St","lineas":"A","borough":"Queens","linea":"Liberty Av","ada":"0"},"geometry":{"type":"Point","coordinates":[-73.83216,40.68433]}},{"type":"Feature","properties":{"nombre":"175 St","lineas":"A","borough":"Manhattan","linea":"8th Av - Fulton St","ada":"1"},"geometry":{"type":"Point","coordinates":[-73.9397,40.84739]}},{"type":"Feature","properties":{"nombre":"Marble Hill-225 St","lineas":"1","borough":"Manhattan","linea":"Broadway - 7Av","ada":"0"},"geometry":{"type":"Point","coordinates":[-73.90983,40.87456]}},{"type":"Feature","properties":{"nombre":"86 St","lineas":"1","borough":"Manhattan","linea":"Broadway - 7Av","ada":"0"},"geometry":{"type":"Point","coordinates":[-73.97622,40.78864]}},{"type":"Feature","properties":{"nombre":"225 St","lineas":"2 5","borough":"Bronx","linea":"Lenox - White Plains Rd","ada":"0"},"geometry":{"type":"Point","coordinates":[-73.86034,40.88802]}},{"type":"Feature","properties":{"nombre":"Elmhurst Av","lineas":"M R","borough":"Queens","linea":"Queens Blvd","ada":"0"},"geometry":{"type":"Point","coordinates":[-73.88202,40.74245]}},{"type":"Feature","properties":{"nombre":"14 St-Union Sq","lineas":"4 5 6","borough":"Manhattan","linea":"Lexington Av","ada":"0"},"geometry":{"type":"Point","coordinates":[-73.98995,40.73467]}},{"type":"Feature","properties":{"nombre":"145 St","lineas":"B D","borough":"Manhattan","linea":"Concourse","ada":"0"},"geometry":{"type":"Point","coordinates":[-73.94422,40.82478]}},{"type":"Feature","properties":{"nombre":"Parkside Av","lineas":"Q","borough":"Brooklyn","linea":"Broadway - Brighton","ada":"0"},"geometry":{"type":"Point","coordinates":[-73.96149,40.65529]}},{"type":"Feature","properties":{"nombre":"Nostrand Av","lineas":"3","borough":"Brooklyn","linea":"Eastern Pky","ada":"0"},"geometry":{"type":"Point","coordinates":[-73.95047,40.66985]}},{"type":"Feature","properties":{"nombre":"Junction Blvd","lineas":"7","borough":"Queens","linea":"Flushing","ada":"1"},"geometry":{"type":"Point","coordinates":[-73.86953,40.74914]}},{"type":"Feature","properties":{"nombre":"86 St","lineas":"R","borough":"Brooklyn","linea":"4th Av","ada":"1"},"geometry":{"type":"Point","coordinates":[-74.0284,40.62269]}},{"type":"Feature","properties":{"nombre":"170 St","lineas":"4","borough":"Bronx","linea":"Jerome Av","ada":"1"},"geometry":{"type":"Point","coordinates":[-73.91779,40.84007]}},{"type":"Feature","properties":{"nombre":"3 Av-149 St","lineas":"2 5","borough":"Bronx","linea":"Lenox - White Plains Rd","ada":"1"},"geometry":{"type":"Point","coordinates":[-73.91776,40.81611]}},{"type":"Feature","properties":{"nombre":"207 St","lineas":"1","borough":"Manhattan","linea":"Broadway - 7Av","ada":"0"},"geometry":{"type":"Point","coordinates":[-73.91882,40.86462]}},{"type":"Feature","properties":{"nombre":"59 St-Columbus Circle","lineas":"1","borough":"Manhattan","linea":"Broadway - 7Av","ada":"1"},"geometry":{"type":"Point","coordinates":[-73.98193,40.76825]}},{"type":"Feature","properties":{"nombre":"Broad Channel","lineas":"A S","borough":"Queens","linea":"Rockaway","ada":"0"},"geometry":{"type":"Point","coordinates":[-73.81592,40.60838]}},{"type":"Feature","properties":{"nombre":"Clinton-Washington Avs","lineas":"C","borough":"Brooklyn","linea":"8th Av - Fulton St","ada":"0"},"geometry":{"type":"Point","coordinates":[-73.96584,40.68326]}},{"type":"Feature","properties":{"nombre":"Ralph Av","lineas":"C","borough":"Brooklyn","linea":"8th Av - Fulton St","ada":"0"},"geometry":{"type":"Point","coordinates":[-73.92079,40.67882]}},{"type":"Feature","properties":{"nombre":"69 St","lineas":"7","borough":"Queens","linea":"Flushing","ada":"0"},"geometry":{"type":"Point","coordinates":[-73.8964,40.74632]}},{"type":"Feature","properties":{"nombre":"Bay 50 St","lineas":"D","borough":"Brooklyn","linea":"West End","ada":"0"},"geometry":{"type":"Point","coordinates":[-73.98377,40.58884]}},{"type":"Feature","properties":{"nombre":"Woodhaven Blvd","lineas":"M R","borough":"Queens","linea":"Queens Blvd","ada":"0"},"geometry":{"type":"Point","coordinates":[-73.86923,40.73311]}},{"type":"Feature","properties":{"nombre":"Tottenville","lineas":"SIR","borough":"Staten Island","linea":"Staten Island","ada":"1"},"geometry":{"type":"Point","coordinates":[-74.25196,40.51276]}},{"type":"Feature","properties":{"nombre":"Broadway Junction","lineas":"J Z","borough":"Brooklyn","linea":"Jamaica","ada":"0"},"geometry":{"type":"Point","coordinates":[-73.90451,40.6795]}},{"type":"Feature","properties":{"nombre":"Myrtle-Wyckoff Avs","lineas":"L","borough":"Brooklyn","linea":"Canarsie","ada":"1"},"geometry":{"type":"Point","coordinates":[-73.91159,40.69981]}},{"type":"Feature","properties":{"nombre":"Queensboro Plaza","lineas":"N W","borough":"Queens","linea":"Astoria","ada":"1"},"geometry":{"type":"Point","coordinates":[-73.9402,40.75058]}},{"type":"Feature","properties":{"nombre":"Lorimer St","lineas":"M J","borough":"Brooklyn","linea":"Jamaica","ada":"0"},"geometry":{"type":"Point","coordinates":[-73.94741,40.70387]}},{"type":"Feature","properties":{"nombre":"Grant City","lineas":"SIR","borough":"Staten Island","linea":"Staten Island","ada":"0"},"geometry":{"type":"Point","coordinates":[-74.1097,40.57896]}},{"type":"Feature","properties":{"nombre":"Sutphin Blvd-Archer Av-JFK Airport","lineas":"E J Z","borough":"Queens","linea":"Queens - Archer","ada":"1"},"geometry":{"type":"Point","coordinates":[-73.80797,40.70049]}},{"type":"Feature","properties":{"nombre":"33 St-Rawson St","lineas":"7","borough":"Queens","linea":"Flushing","ada":"0"},"geometry":{"type":"Point","coordinates":[-73.931,40.74459]}},{"type":"Feature","properties":{"nombre":"Cathedral Pkwy (110 St)","lineas":"C B","borough":"Manhattan","linea":"8th Av - Fulton St","ada":"0"},"geometry":{"type":"Point","coordinates":[-73.95816,40.8006]}},{"type":"Feature","properties":{"nombre":"Kew Gardens-Union Tpke","lineas":"E F","borough":"Queens","linea":"Queens Blvd","ada":"1"},"geometry":{"type":"Point","coordinates":[-73.83101,40.71444]}},{"type":"Feature","properties":{"nombre":"23 St","lineas":"1","borough":"Manhattan","linea":"Broadway - 7Av","ada":"0"},"geometry":{"type":"Point","coordinates":[-73.99566,40.74408]}},{"type":"Feature","properties":{"nombre":"Hoyt-Schermerhorn Sts","lineas":"A C G","borough":"Brooklyn","linea":"8th Av - Fulton St","ada":"0"},"geometry":{"type":"Point","coordinates":[-73.985,40.68848]}},{"type":"Feature","properties":{"nombre":"14 St-Union Sq","lineas":"N Q R W","borough":"Manhattan","linea":"Broadway - Brighton","ada":"1"},"geometry":{"type":"Point","coordinates":[-73.99057,40.73574]}},{"type":"Feature","properties":{"nombre":"135 St","lineas":"2 3","borough":"Manhattan","linea":"Lenox - White Plains Rd","ada":"1"},"geometry":{"type":"Point","coordinates":[-73.94077,40.81423]}},{"type":"Feature","properties":{"nombre":"20 Av","lineas":"N","borough":"Brooklyn","linea":"Sea Beach","ada":"0"},"geometry":{"type":"Point","coordinates":[-73.98503,40.61741]}},{"type":"Feature","properties":{"nombre":"190 St","lineas":"A","borough":"Manhattan","linea":"8th Av - Fulton St","ada":"0"},"geometry":{"type":"Point","coordinates":[-73.93418,40.85902]}},{"type":"Feature","properties":{"nombre":"Clinton-Washington Avs","lineas":"G","borough":"Brooklyn","linea":"Crosstown","ada":"0"},"geometry":{"type":"Point","coordinates":[-73.96684,40.68809]}},{"type":"Feature","properties":{"nombre":"E 143 St-St Mary's St","lineas":"6","borough":"Bronx","linea":"Pelham","ada":"0"},"geometry":{"type":"Point","coordinates":[-73.90766,40.80872]}},{"type":"Feature","properties":{"nombre":"Halsey St","lineas":"J","borough":"Brooklyn","linea":"Jamaica","ada":"0"},"geometry":{"type":"Point","coordinates":[-73.91656,40.68637]}},{"type":"Feature","properties":{"nombre":"Grand St","lineas":"B D","borough":"Manhattan","linea":"6th Av - Culver","ada":"0"},"geometry":{"type":"Point","coordinates":[-73.99375,40.71827]}},{"type":"Feature","properties":{"nombre":"86 St","lineas":"N","borough":"Brooklyn","linea":"Sea Beach","ada":"0"},"geometry":{"type":"Point","coordinates":[-73.97823,40.59272]}},{"type":"Feature","properties":{"nombre":"Saratoga Av","lineas":"3","borough":"Brooklyn","linea":"Eastern Pky","ada":"0"},"geometry":{"type":"Point","coordinates":[-73.91633,40.66145]}},{"type":"Feature","properties":{"nombre":"Great Kills","lineas":"SIR","borough":"Staten Island","linea":"Staten Island","ada":"1"},"geometry":{"type":"Point","coordinates":[-74.1514,40.55123]}},{"type":"Feature","properties":{"nombre":"Borough Hall","lineas":"2 3","borough":"Brooklyn","linea":"Clark St","ada":"1"},"geometry":{"type":"Point","coordinates":[-73.99,40.69322]}},{"type":"Feature","properties":{"nombre":"Seneca Av","lineas":"M","borough":"Queens","linea":"Myrtle Av","ada":"0"},"geometry":{"type":"Point","coordinates":[-73.90774,40.70276]}},{"type":"Feature","properties":{"nombre":"Rockaway Park-Beach 116 St","lineas":"A S","borough":"Queens","linea":"Rockaway","ada":"1"},"geometry":{"type":"Point","coordinates":[-73.83559,40.5809]}},{"type":"Feature","properties":{"nombre":"Montrose Av","lineas":"L","borough":"Brooklyn","linea":"Canarsie","ada":"0"},"geometry":{"type":"Point","coordinates":[-73.93985,40.70774]}},{"type":"Feature","properties":{"nombre":"167 St","lineas":"B D","borough":"Bronx","linea":"Concourse","ada":"0"},"geometry":{"type":"Point","coordinates":[-73.91844,40.83377]}},{"type":"Feature","properties":{"nombre":"New Lots Av","lineas":"3","borough":"Brooklyn","linea":"Eastern Pky","ada":"0"},"geometry":{"type":"Point","coordinates":[-73.88408,40.66624]}},{"type":"Feature","properties":{"nombre":"Pleasant Plains","lineas":"SIR","borough":"Staten Island","linea":"Staten Island","ada":"0"},"geometry":{"type":"Point","coordinates":[-74.21785,40.52241]}},{"type":"Feature","properties":{"nombre":"Baychester Av","lineas":"5","borough":"Bronx","linea":"Dyre Av","ada":"0"},"geometry":{"type":"Point","coordinates":[-73.83859,40.87866]}},{"type":"Feature","properties":{"nombre":"Myrtle-Willoughby Avs","lineas":"G","borough":"Brooklyn","linea":"Crosstown","ada":"0"},"geometry":{"type":"Point","coordinates":[-73.94905,40.69457]}},{"type":"Feature","properties":{"nombre":"174 St","lineas":"2 5","borough":"Bronx","linea":"Lenox - White Plains Rd","ada":"0"},"geometry":{"type":"Point","coordinates":[-73.88773,40.83729]}},{"type":"Feature","properties":{"nombre":"Court Sq-23 St","lineas":"E F","borough":"Queens","linea":"Queens Blvd","ada":"2"},"geometry":{"type":"Point","coordinates":[-73.946,40.74785]}},{"type":"Feature","properties":{"nombre":"Fordham Rd","lineas":"4","borough":"Bronx","linea":"Jerome Av","ada":"1"},"geometry":{"type":"Point","coordinates":[-73.90103,40.8628]}},{"type":"Feature","properties":{"nombre":"81 St-Museum of Natural History","lineas":"C B","borough":"Manhattan","linea":"8th Av - Fulton St","ada":"0"},"geometry":{"type":"Point","coordinates":[-73.97214,40.78143]}},{"type":"Feature","properties":{"nombre":"St George","lineas":"SIR","borough":"Staten Island","linea":"Staten Island","ada":"1"},"geometry":{"type":"Point","coordinates":[-74.07364,40.64375]}},{"type":"Feature","properties":{"nombre":"Canal St","lineas":"N Q","borough":"Manhattan","linea":"Manhattan Bridge","ada":"0"},"geometry":{"type":"Point","coordinates":[-74.00046,40.71838]}},{"type":"Feature","properties":{"nombre":"Van Siclen Av","lineas":"C","borough":"Brooklyn","linea":"8th Av - Fulton St","ada":"0"},"geometry":{"type":"Point","coordinates":[-73.89036,40.67271]}},{"type":"Feature","properties":{"nombre":"157 St","lineas":"1","borough":"Manhattan","linea":"Broadway - 7Av","ada":"0"},"geometry":{"type":"Point","coordinates":[-73.94489,40.83404]}},{"type":"Feature","properties":{"nombre":"Middletown Rd","lineas":"6","borough":"Bronx","linea":"Pelham","ada":"0"},"geometry":{"type":"Point","coordinates":[-73.83632,40.84386]}},{"type":"Feature","properties":{"nombre":"Prospect Av","lineas":"R","borough":"Brooklyn","linea":"4th Av","ada":"0"},"geometry":{"type":"Point","coordinates":[-73.99287,40.66541]}},{"type":"Feature","properties":{"nombre":"World Trade Center","lineas":"E","borough":"Manhattan","linea":"8th Av - Fulton St","ada":"1"},"geometry":{"type":"Point","coordinates":[-74.00978,40.71258]}},{"type":"Feature","properties":{"nombre":"Park Pl","lineas":"S","borough":"Brooklyn","linea":"Franklin Shuttle","ada":"1"},"geometry":{"type":"Point","coordinates":[-73.95762,40.67477]}},{"type":"Feature","properties":{"nombre":"Newkirk Plaza","lineas":"B Q","borough":"Brooklyn","linea":"Broadway - Brighton","ada":"0"},"geometry":{"type":"Point","coordinates":[-73.96279,40.63508]}},{"type":"Feature","properties":{"nombre":"Steinway St","lineas":"M R","borough":"Queens","linea":"Queens Blvd","ada":"0"},"geometry":{"type":"Point","coordinates":[-73.92074,40.75688]}},{"type":"Feature","properties":{"nombre":"Parsons Blvd","lineas":"F","borough":"Queens","linea":"Queens Blvd","ada":"0"},"geometry":{"type":"Point","coordinates":[-73.80333,40.70756]}},{"type":"Feature","properties":{"nombre":"Christopher St-Stonewall","lineas":"1","borough":"Manhattan","linea":"Broadway - 7Av","ada":"0"},"geometry":{"type":"Point","coordinates":[-74.00291,40.73342]}},{"type":"Feature","properties":{"nombre":"Bowling Green","lineas":"4 5","borough":"Manhattan","linea":"Lexington Av","ada":"1"},"geometry":{"type":"Point","coordinates":[-74.01407,40.70482]}},{"type":"Feature","properties":{"nombre":"St Lawrence Av","lineas":"6","borough":"Bronx","linea":"Pelham","ada":"0"},"geometry":{"type":"Point","coordinates":[-73.86762,40.83151]}},{"type":"Feature","properties":{"nombre":"125 St","lineas":"1","borough":"Manhattan","linea":"Broadway - 7Av","ada":"0"},"geometry":{"type":"Point","coordinates":[-73.95837,40.81558]}},{"type":"Feature","properties":{"nombre":"Lexington Av/59 St","lineas":"N R W","borough":"Manhattan","linea":"Astoria","ada":"0"},"geometry":{"type":"Point","coordinates":[-73.96726,40.76266]}},{"type":"Feature","properties":{"nombre":"York St","lineas":"F","borough":"Brooklyn","linea":"6th Av - Culver","ada":"0"},"geometry":{"type":"Point","coordinates":[-73.98675,40.7014]}},{"type":"Feature","properties":{"nombre":"Avenue I","lineas":"F","borough":"Brooklyn","linea":"6th Av - Culver","ada":"0"},"geometry":{"type":"Point","coordinates":[-73.97613,40.62532]}},{"type":"Feature","properties":{"nombre":"55 St","lineas":"D","borough":"Brooklyn","linea":"West End","ada":"0"},"geometry":{"type":"Point","coordinates":[-73.99548,40.63144]}},{"type":"Feature","properties":{"nombre":"Beach 36 St","lineas":"A","borough":"Queens","linea":"Rockaway","ada":"0"},"geometry":{"type":"Point","coordinates":[-73.76817,40.5954]}},{"type":"Feature","properties":{"nombre":"Broad St","lineas":"J Z","borough":"Manhattan","linea":"Jamaica","ada":"0"},"geometry":{"type":"Point","coordinates":[-74.01106,40.70648]}},{"type":"Feature","properties":{"nombre":"96 St","lineas":"6","borough":"Manhattan","linea":"Lexington Av","ada":"0"},"geometry":{"type":"Point","coordinates":[-73.95107,40.78567]}},{"type":"Feature","properties":{"nombre":"34 St-Herald Sq","lineas":"N Q R W","borough":"Manhattan","linea":"Broadway - Brighton","ada":"1"},"geometry":{"type":"Point","coordinates":[-73.98795,40.74957]}},{"type":"Feature","properties":{"nombre":"Grand Central-42 St","lineas":"S","borough":"Manhattan","linea":"Lexington - Shuttle","ada":"1"},"geometry":{"type":"Point","coordinates":[-73.97919,40.75277]}},{"type":"Feature","properties":{"nombre":"South Ferry","lineas":"1","borough":"Manhattan","linea":"Broadway - 7Av","ada":"1"},"geometry":{"type":"Point","coordinates":[-74.01366,40.70207]}},{"type":"Feature","properties":{"nombre":"182-183 Sts","lineas":"B D","borough":"Bronx","linea":"Concourse","ada":"0"},"geometry":{"type":"Point","coordinates":[-73.90074,40.85609]}},{"type":"Feature","properties":{"nombre":"Brooklyn Bridge-City Hall","lineas":"4 5 6","borough":"Manhattan","linea":"Lexington Av","ada":"1"},"geometry":{"type":"Point","coordinates":[-74.00413,40.71307]}},{"type":"Feature","properties":{"nombre":"135 St","lineas":"C B","borough":"Manhattan","linea":"8th Av - Fulton St","ada":"0"},"geometry":{"type":"Point","coordinates":[-73.94765,40.81789]}},{"type":"Feature","properties":{"nombre":"Pelham Pkwy","lineas":"2 5","borough":"Bronx","linea":"Lenox - White Plains Rd","ada":"1"},"geometry":{"type":"Point","coordinates":[-73.86762,40.85719]}},{"type":"Feature","properties":{"nombre":"Bay Pkwy","lineas":"N","borough":"Brooklyn","linea":"Sea Beach","ada":"0"},"geometry":{"type":"Point","coordinates":[-73.98185,40.61181]}},{"type":"Feature","properties":{"nombre":"125 St","lineas":"2 3","borough":"Manhattan","linea":"Lenox - White Plains Rd","ada":"0"},"geometry":{"type":"Point","coordinates":[-73.94549,40.80775]}},{"type":"Feature","properties":{"nombre":"50 St","lineas":"D","borough":"Brooklyn","linea":"West End","ada":"0"},"geometry":{"type":"Point","coordinates":[-73.99479,40.63626]}},{"type":"Feature","properties":{"nombre":"Bay Ridge-95 St","lineas":"R","borough":"Brooklyn","linea":"4th Av","ada":"1"},"geometry":{"type":"Point","coordinates":[-74.03088,40.61662]}},{"type":"Feature","properties":{"nombre":"Nassau Av","lineas":"G","borough":"Brooklyn","linea":"Crosstown","ada":"0"},"geometry":{"type":"Point","coordinates":[-73.95128,40.72463]}},{"type":"Feature","properties":{"nombre":"Spring St","lineas":"C E","borough":"Manhattan","linea":"8th Av - Fulton St","ada":"2"},"geometry":{"type":"Point","coordinates":[-74.00374,40.72623]}},{"type":"Feature","properties":{"nombre":"Mt Eden Av","lineas":"4","borough":"Bronx","linea":"Jerome Av","ada":"0"},"geometry":{"type":"Point","coordinates":[-73.91469,40.84443]}},{"type":"Feature","properties":{"nombre":"168 St","lineas":"A C","borough":"Manhattan","linea":"8th Av - Fulton St","ada":"1"},"geometry":{"type":"Point","coordinates":[-73.93956,40.84072]}},{"type":"Feature","properties":{"nombre":"Jamaica Center-Parsons/Archer","lineas":"E J Z","borough":"Queens","linea":"Queens - Archer","ada":"1"},"geometry":{"type":"Point","coordinates":[-73.80111,40.70215]}},{"type":"Feature","properties":{"nombre":"Dyckman St","lineas":"1","borough":"Manhattan","linea":"Broadway - 7Av","ada":"1"},"geometry":{"type":"Point","coordinates":[-73.92554,40.86053]}},{"type":"Feature","properties":{"nombre":"53 St","lineas":"R","borough":"Brooklyn","linea":"4th Av","ada":"0"},"geometry":{"type":"Point","coordinates":[-74.01403,40.64507]}},{"type":"Feature","properties":{"nombre":"80 St","lineas":"A","borough":"Queens","linea":"Liberty Av","ada":"0"},"geometry":{"type":"Point","coordinates":[-73.85899,40.67937]}},{"type":"Feature","properties":{"nombre":"Rockaway Av","lineas":"C","borough":"Brooklyn","linea":"8th Av - Fulton St","ada":"0"},"geometry":{"type":"Point","coordinates":[-73.91195,40.67834]}},{"type":"Feature","properties":{"nombre":"Jackson Hts-Roosevelt Av","lineas":"E F M R","borough":"Queens","linea":"Queens Blvd","ada":"1"},"geometry":{"type":"Point","coordinates":[-73.89134,40.74664]}},{"type":"Feature","properties":{"nombre":"Kings Hwy","lineas":"B Q","borough":"Brooklyn","linea":"Broadway - Brighton","ada":"1"},"geometry":{"type":"Point","coordinates":[-73.95773,40.60867]}},{"type":"Feature","properties":{"nombre":"86 St","lineas":"4 5 6","borough":"Manhattan","linea":"Lexington Av","ada":"2"},"geometry":{"type":"Point","coordinates":[-73.95559,40.77949]}},{"type":"Feature","properties":{"nombre":"Astoria Blvd","lineas":"N W","borough":"Queens","linea":"Astoria","ada":"1"},"geometry":{"type":"Point","coordinates":[-73.91784,40.77026]}},{"type":"Feature","properties":{"nombre":"Freeman St","lineas":"2 5","borough":"Bronx","linea":"Lenox - White Plains Rd","ada":"0"},"geometry":{"type":"Point","coordinates":[-73.89186,40.82999]}},{"type":"Feature","properties":{"nombre":"Norwood-205 St","lineas":"D","borough":"Bronx","linea":"Concourse","ada":"0"},"geometry":{"type":"Point","coordinates":[-73.87886,40.87481]}},{"type":"Feature","properties":{"nombre":"103 St-Corona Plaza","lineas":"7","borough":"Queens","linea":"Flushing","ada":"0"},"geometry":{"type":"Point","coordinates":[-73.8627,40.74986]}},{"type":"Feature","properties":{"nombre":"Winthrop St","lineas":"2 5","borough":"Brooklyn","linea":"Nostrand","ada":"0"},"geometry":{"type":"Point","coordinates":[-73.9502,40.65665]}},{"type":"Feature","properties":{"nombre":"4 Av-9 St","lineas":"F G","borough":"Brooklyn","linea":"6th Av - Culver","ada":"0"},"geometry":{"type":"Point","coordinates":[-73.98978,40.67027]}},{"type":"Feature","properties":{"nombre":"Fort Hamilton Pkwy","lineas":"F G","borough":"Brooklyn","linea":"6th Av - Culver","ada":"0"},"geometry":{"type":"Point","coordinates":[-73.97578,40.65078]}},{"type":"Feature","properties":{"nombre":"Avenue X","lineas":"F","borough":"Brooklyn","linea":"6th Av - Culver","ada":"0"},"geometry":{"type":"Point","coordinates":[-73.97425,40.58962]}},{"type":"Feature","properties":{"nombre":"233 St","lineas":"2 5","borough":"Bronx","linea":"Lenox - White Plains Rd","ada":"1"},"geometry":{"type":"Point","coordinates":[-73.85747,40.89319]}},{"type":"Feature","properties":{"nombre":"DeKalb Av","lineas":"L","borough":"Brooklyn","linea":"Canarsie","ada":"0"},"geometry":{"type":"Point","coordinates":[-73.91842,40.70381]}},{"type":"Feature","properties":{"nombre":"East 105 St","lineas":"L","borough":"Brooklyn","linea":"Canarsie","ada":"0"},"geometry":{"type":"Point","coordinates":[-73.89948,40.65057]}},{"type":"Feature","properties":{"nombre":"Vernon Blvd-Jackson Av","lineas":"7","borough":"Queens","linea":"Flushing","ada":"0"},"geometry":{"type":"Point","coordinates":[-73.95358,40.74263]}},{"type":"Feature","properties":{"nombre":"125 St","lineas":"4 5 6","borough":"Manhattan","linea":"Lexington Av","ada":"1"},"geometry":{"type":"Point","coordinates":[-73.93759,40.80414]}},{"type":"Feature","properties":{"nombre":"Jefferson Av","lineas":"SIR","borough":"Staten Island","linea":"Staten Island","ada":"0"},"geometry":{"type":"Point","coordinates":[-74.10334,40.58359]}},{"type":"Feature","properties":{"nombre":"Chambers St","lineas":"1 2 3","borough":"Manhattan","linea":"Broadway - 7Av","ada":"1"},"geometry":{"type":"Point","coordinates":[-74.00927,40.71548]}},{"type":"Feature","properties":{"nombre":"Ozone Park-Lefferts Blvd","lineas":"A","borough":"Queens","linea":"Liberty Av","ada":"1"},"geometry":{"type":"Point","coordinates":[-73.8258,40.68595]}},{"type":"Feature","properties":{"nombre":"18 Av","lineas":"D","borough":"Brooklyn","linea":"West End","ada":"0"},"geometry":{"type":"Point","coordinates":[-74.00174,40.60795]}},{"type":"Feature","properties":{"nombre":"Bowery","lineas":"J Z","borough":"Manhattan","linea":"Jamaica","ada":"0"},"geometry":{"type":"Point","coordinates":[-73.99392,40.72028]}},{"type":"Feature","properties":{"nombre":"4 Av-9 St","lineas":"R","borough":"Brooklyn","linea":"4th Av","ada":"0"},"geometry":{"type":"Point","coordinates":[-73.9883,40.67085]}},{"type":"Feature","properties":{"nombre":"Franklin Av-Medgar Evers College","lineas":"2 3 4 5","borough":"Brooklyn","linea":"Eastern Pky","ada":"0"},"geometry":{"type":"Point","coordinates":[-73.95813,40.67068]}},{"type":"Feature","properties":{"nombre":"Astor Pl","lineas":"6","borough":"Manhattan","linea":"Lexington Av","ada":"0"},"geometry":{"type":"Point","coordinates":[-73.99107,40.73005]}},{"type":"Feature","properties":{"nombre":"Church Av","lineas":"B Q","borough":"Brooklyn","linea":"Broadway - Brighton","ada":"1"},"geometry":{"type":"Point","coordinates":[-73.96298,40.65053]}},{"type":"Feature","properties":{"nombre":"Court St","lineas":"R","borough":"Brooklyn","linea":"Broadway","ada":"0"},"geometry":{"type":"Point","coordinates":[-73.99178,40.6941]}},{"type":"Feature","properties":{"nombre":"Chauncey St","lineas":"J Z","borough":"Brooklyn","linea":"Jamaica","ada":"0"},"geometry":{"type":"Point","coordinates":[-73.91046,40.68289]}},{"type":"Feature","properties":{"nombre":"61 St-Woodside","lineas":"7","borough":"Queens","linea":"Flushing","ada":"1"},"geometry":{"type":"Point","coordinates":[-73.90298,40.74563]}},{"type":"Feature","properties":{"nombre":"Ocean Pkwy","lineas":"Q","borough":"Brooklyn","linea":"Broadway - Brighton","ada":"0"},"geometry":{"type":"Point","coordinates":[-73.9685,40.57631]}},{"type":"Feature","properties":{"nombre":"Norwood Av","lineas":"J Z","borough":"Brooklyn","linea":"Jamaica","ada":"0"},"geometry":{"type":"Point","coordinates":[-73.88004,40.68141]}},{"type":"Feature","properties":{"nombre":"Broadway Junction","lineas":"L","borough":"Brooklyn","linea":"Canarsie","ada":"0"},"geometry":{"type":"Point","coordinates":[-73.90324,40.67886]}},{"type":"Feature","properties":{"nombre":"231 St","lineas":"1","borough":"Bronx","linea":"Broadway - 7Av","ada":"1"},"geometry":{"type":"Point","coordinates":[-73.90483,40.87886]}},{"type":"Feature","properties":{"nombre":"63 Dr-Rego Park","lineas":"M R","borough":"Queens","linea":"Queens Blvd","ada":"0"},"geometry":{"type":"Point","coordinates":[-73.8616,40.72985]}},{"type":"Feature","properties":{"nombre":"34 St-Penn Station","lineas":"A C E","borough":"Manhattan","linea":"8th Av - Fulton St","ada":"1"},"geometry":{"type":"Point","coordinates":[-73.99339,40.75229]}},{"type":"Feature","properties":{"nombre":"Beach 90 St","lineas":"A S","borough":"Queens","linea":"Rockaway","ada":"0"},"geometry":{"type":"Point","coordinates":[-73.81364,40.58803]}},{"type":"Feature","properties":{"nombre":"50 St","lineas":"1","borough":"Manhattan","linea":"Broadway - 7Av","ada":"0"},"geometry":{"type":"Point","coordinates":[-73.98385,40.76173]}},{"type":"Feature","properties":{"nombre":"96 St","lineas":"1 2 3","borough":"Manhattan","linea":"Broadway - 7Av","ada":"1"},"geometry":{"type":"Point","coordinates":[-73.97232,40.79392]}},{"type":"Feature","properties":{"nombre":"Franklin Av","lineas":"C","borough":"Brooklyn","linea":"8th Av - Fulton St","ada":"1"},"geometry":{"type":"Point","coordinates":[-73.95685,40.68138]}},{"type":"Feature","properties":{"nombre":"51 St","lineas":"6","borough":"Manhattan","linea":"Lexington Av","ada":"1"},"geometry":{"type":"Point","coordinates":[-73.97192,40.75711]}},{"type":"Feature","properties":{"nombre":"8 Av","lineas":"N","borough":"Brooklyn","linea":"Sea Beach","ada":"1"},"geometry":{"type":"Point","coordinates":[-74.01172,40.63506]}},{"type":"Feature","properties":{"nombre":"Richmond Valley","lineas":"SIR","borough":"Staten Island","linea":"Staten Island","ada":"0"},"geometry":{"type":"Point","coordinates":[-74.22914,40.51963]}},{"type":"Feature","properties":{"nombre":"Atlantic Av-Barclays Ctr","lineas":"2 3 4 5","borough":"Brooklyn","linea":"Eastern Pky","ada":"1"},"geometry":{"type":"Point","coordinates":[-73.97767,40.68436]}},{"type":"Feature","properties":{"nombre":"Flatbush Av-Brooklyn College","lineas":"2 5","borough":"Brooklyn","linea":"Nostrand","ada":"1"},"geometry":{"type":"Point","coordinates":[-73.94764,40.63284]}},{"type":"Feature","properties":{"nombre":"Woodlawn","lineas":"4","borough":"Bronx","linea":"Jerome Av","ada":"0"},"geometry":{"type":"Point","coordinates":[-73.87875,40.88604]}},{"type":"Feature","properties":{"nombre":"34 St-Herald Sq","lineas":"B D F M","borough":"Manhattan","linea":"6th Av - Culver","ada":"1"},"geometry":{"type":"Point","coordinates":[-73.98782,40.74972]}},{"type":"Feature","properties":{"nombre":"Morris Park","lineas":"5","borough":"Bronx","linea":"Dyre Av","ada":"0"},"geometry":{"type":"Point","coordinates":[-73.8605,40.85436]}},{"type":"Feature","properties":{"nombre":"8 Av","lineas":"L","borough":"Manhattan","linea":"Canarsie","ada":"1"},"geometry":{"type":"Point","coordinates":[-74.00258,40.73978]}},{"type":"Feature","properties":{"nombre":"Queensboro Plaza","lineas":"7","borough":"Queens","linea":"Flushing","ada":"1"},"geometry":{"type":"Point","coordinates":[-73.9402,40.75058]}},{"type":"Feature","properties":{"nombre":"Whitlock Av","lineas":"6","borough":"Bronx","linea":"Pelham","ada":"0"},"geometry":{"type":"Point","coordinates":[-73.88628,40.82652]}},{"type":"Feature","properties":{"nombre":"Flushing Av","lineas":"M J","borough":"Brooklyn","linea":"Jamaica","ada":"1"},"geometry":{"type":"Point","coordinates":[-73.94113,40.70026]}},{"type":"Feature","properties":{"nombre":"Clifton","lineas":"SIR","borough":"Staten Island","linea":"Staten Island","ada":"0"},"geometry":{"type":"Point","coordinates":[-74.0714,40.62132]}},{"type":"Feature","properties":{"nombre":"Park Place","lineas":"2 3","borough":"Manhattan","linea":"Clark St","ada":"0"},"geometry":{"type":"Point","coordinates":[-74.00881,40.71305]}},{"type":"Feature","properties":{"nombre":"Jackson Av","lineas":"2 5","borough":"Bronx","linea":"Lenox - White Plains Rd","ada":"0"},"geometry":{"type":"Point","coordinates":[-73.90781,40.81649]}},{"type":"Feature","properties":{"nombre":"Tremont Av","lineas":"B D","borough":"Bronx","linea":"Concourse","ada":"1"},"geometry":{"type":"Point","coordinates":[-73.90523,40.85041]}},{"type":"Feature","properties":{"nombre":"Bedford Av","lineas":"L","borough":"Brooklyn","linea":"Canarsie","ada":"1"},"geometry":{"type":"Point","coordinates":[-73.95687,40.7173]}},{"type":"Feature","properties":{"nombre":"Roosevelt Island","lineas":"M","borough":"Manhattan","linea":"63rd St","ada":"1"},"geometry":{"type":"Point","coordinates":[-73.95326,40.75914]}},{"type":"Feature","properties":{"nombre":"Woodhaven Blvd","lineas":"J Z","borough":"Queens","linea":"Jamaica","ada":"1"},"geometry":{"type":"Point","coordinates":[-73.85158,40.69388]}},{"type":"Feature","properties":{"nombre":"Eltingville","lineas":"SIR","borough":"Staten Island","linea":"Staten Island","ada":"0"},"geometry":{"type":"Point","coordinates":[-74.16457,40.5446]}},{"type":"Feature","properties":{"nombre":"2 Av","lineas":"F","borough":"Manhattan","linea":"6th Av - Culver","ada":"0"},"geometry":{"type":"Point","coordinates":[-73.98994,40.7234]}},{"type":"Feature","properties":{"nombre":"Rockaway Av","lineas":"3","borough":"Brooklyn","linea":"Eastern Pky","ada":"0"},"geometry":{"type":"Point","coordinates":[-73.90895,40.66255]}}]}